{
  "type": "FeatureCollection",
  "name": "ANCHOR_sites",
  "crs": {
    "type": "name",
    "properties": {
      "name": "urn:ogc:def:crs:OGC:1.3:CRS84"
    }
  },
  "xy_coordinate_resolution": 1e-15,
  "features": [
    {
      "type": "Feature",
      "properties": {
        "ANCHOR_SiteName": "MOTSU",
        "NatGrass_EstAcres": 0,
        "NatGrass_1_MMNWVC": null,
        "NatGrass_2_NWVC": null,
        "NatGrass_4_MH": null,
        "NatGrass_5_TT": null,
        "NatGrass_8_BMM": null,
        "NatGrass_9_PB": null,
        "NatGrass_13_TPB": null,
        "NatGrass_18_NGFP": null,
        "PollHabMilkweed_EstAcres": 0,
        "PollHabMilkweed_1_MMNWVC": null,
        "PollHabMilkweed_2_NWVC": null,
        "PollHabMilkweed_4_MH": null,
        "PollHabMilkweed_5_TT": null,
        "PollHabMilkweed_8_BMM": null,
        "PollHabMilkweed_9_PB": null,
        "PollHabMilkweed_13_TPB": null,
        "PollHabMilkweed_18_NGFP": null,
        "PollHabNectPlants_EstAcres": 0,
        "PollHabNectPlants_1_MMNWVC": null,
        "PollHabNectPlants_2_NWVC": null,
        "PollHabNectPlants_4_MH": null,
        "PollHabNectPlants_5_TT": null,
        "PollHabNectPlants_8_BMM": null,
        "PollHabNectPlants_9_PB": null,
        "PollHabNectPlants_13_TPB": null,
        "PollHabNectPlants_18_NGFP": null,
        "NatLongSav_EstAcres": 0,
        "NatLongSav_1_MMNWVC": null,
        "NatLongSav_2_NWVC": null,
        "NatLongSav_4_MH": null,
        "NatLongSav_5_TT": null,
        "NatLongSav_8_BMM": null,
        "NatLongSav_9_PB": null,
        "NatLongSav_13_TPB": null,
        "NatLongSav_18_NGFP": null,
        "MixedPineSav_EstAcres": 8500,
        "MixedPineSav_1_MMNWVC": null,
        "MixedPineSav_2_NWVC": null,
        "MixedPineSav_4_MH": null,
        "MixedPineSav_5_TT": 1000,
        "MixedPineSav_8_BMM": 400,
        "MixedPineSav_9_PB": 2100,
        "MixedPineSav_12_TPB": null,
        "MixedPineSav_18_NGFP": null,
        "GrazLandswCP_EstAcres": 0,
        "GrazLandswCP_1_MMNWVC": null,
        "GrazLandswCP_2_NWVC": null,
        "GrazLandswCP_4_MH": null,
        "GrazLandswCP_5_TT": null,
        "GrazLandswCP_8_BMM": null,
        "GrazLandswCP_9_PB": null,
        "GrazLandswCP_13_TPB": null,
        "GrazLandswCP_18_NGFP": null,
        "CroplandwCP_EstAcres": 0,
        "CroplandwCP_1_MMNWVC": null,
        "CroplandwCP_2_NWVC": null,
        "CroplandwCP_4_MH": null,
        "CroplandwCP_5_TT": null,
        "CroplandwCP_8_BMM": null,
        "CroplandwCP_9_PB": null,
        "CroplandwCP_13_TPB": null,
        "CroplandwCP_18_NGFP": null,
        "Calculation_ANCHOR_ACRES_TOTAL": 11284,
        "ANCHOR_Ownership": "public",
        "ANCHOR_OwnershipConfidence": "high"
      },
      "geometry": {
        "type": "Point",
        "coordinates": [
          -77.97937701103388,
          34.0054705040472
        ]
      }
    },
    {
      "type": "Feature",
      "properties": {
        "ANCHOR_SiteName": "Bobwhite Quail Focus Area",
        "NatGrass_EstAcres": 2500,
        "NatGrass_1_MMNWVC": 50,
        "NatGrass_2_NWVC": 75,
        "NatGrass_4_MH": 0,
        "NatGrass_5_TT": 150,
        "NatGrass_8_BMM": 400,
        "NatGrass_9_PB": 1200,
        "NatGrass_13_TPB": 0,
        "NatGrass_18_NGFP": 100,
        "PollHabMilkweed_EstAcres": 60,
        "PollHabMilkweed_1_MMNWVC": 0,
        "PollHabMilkweed_2_NWVC": 75,
        "PollHabMilkweed_4_MH": 0,
        "PollHabMilkweed_5_TT": 0,
        "PollHabMilkweed_8_BMM": 20,
        "PollHabMilkweed_9_PB": 60,
        "PollHabMilkweed_13_TPB": 0,
        "PollHabMilkweed_18_NGFP": 5,
        "PollHabNectPlants_EstAcres": 250,
        "PollHabNectPlants_1_MMNWVC": 10,
        "PollHabNectPlants_2_NWVC": 30,
        "PollHabNectPlants_4_MH": 0,
        "PollHabNectPlants_5_TT": 0,
        "PollHabNectPlants_8_BMM": 1,
        "PollHabNectPlants_9_PB": 250,
        "PollHabNectPlants_13_TPB": 0,
        "PollHabNectPlants_18_NGFP": 10,
        "NatLongSav_EstAcres": 0,
        "NatLongSav_1_MMNWVC": null,
        "NatLongSav_2_NWVC": null,
        "NatLongSav_4_MH": null,
        "NatLongSav_5_TT": null,
        "NatLongSav_8_BMM": null,
        "NatLongSav_9_PB": null,
        "NatLongSav_13_TPB": null,
        "NatLongSav_18_NGFP": null,
        "MixedPineSav_EstAcres": 0,
        "MixedPineSav_1_MMNWVC": null,
        "MixedPineSav_2_NWVC": null,
        "MixedPineSav_4_MH": null,
        "MixedPineSav_5_TT": null,
        "MixedPineSav_8_BMM": null,
        "MixedPineSav_9_PB": null,
        "MixedPineSav_12_TPB": null,
        "MixedPineSav_18_NGFP": null,
        "GrazLandswCP_EstAcres": 0,
        "GrazLandswCP_1_MMNWVC": null,
        "GrazLandswCP_2_NWVC": null,
        "GrazLandswCP_4_MH": null,
        "GrazLandswCP_5_TT": null,
        "GrazLandswCP_8_BMM": null,
        "GrazLandswCP_9_PB": null,
        "GrazLandswCP_13_TPB": null,
        "GrazLandswCP_18_NGFP": null,
        "CroplandwCP_EstAcres": 0,
        "CroplandwCP_1_MMNWVC": null,
        "CroplandwCP_2_NWVC": null,
        "CroplandwCP_4_MH": null,
        "CroplandwCP_5_TT": null,
        "CroplandwCP_8_BMM": null,
        "CroplandwCP_9_PB": null,
        "CroplandwCP_13_TPB": null,
        "CroplandwCP_18_NGFP": null,
        "Calculation_ANCHOR_ACRES_TOTAL": 2951,
        "ANCHOR_Ownership": "public",
        "ANCHOR_OwnershipConfidence": "high"
      },
      "geometry": {
        "type": "Point",
        "coordinates": [
          -77.71036000499346,
          40.025348126088154
        ]
      }
    },
    {
      "type": "Feature",
      "properties": {
        "ANCHOR_SiteName": "Melvern Lake",
        "NatGrass_EstAcres": 397,
        "NatGrass_1_MMNWVC": 100,
        "NatGrass_2_NWVC": 150,
        "NatGrass_4_MH": 397,
        "NatGrass_5_TT": 150,
        "NatGrass_8_BMM": 200,
        "NatGrass_9_PB": 794,
        "NatGrass_13_TPB": 10,
        "NatGrass_18_NGFP": 20,
        "PollHabMilkweed_EstAcres": 150,
        "PollHabMilkweed_1_MMNWVC": 0,
        "PollHabMilkweed_2_NWVC": 500,
        "PollHabMilkweed_4_MH": 1985,
        "PollHabMilkweed_5_TT": 200,
        "PollHabMilkweed_8_BMM": 50,
        "PollHabMilkweed_9_PB": 794,
        "PollHabMilkweed_13_TPB": 10,
        "PollHabMilkweed_18_NGFP": 20,
        "PollHabNectPlants_EstAcres": null,
        "PollHabNectPlants_1_MMNWVC": null,
        "PollHabNectPlants_2_NWVC": null,
        "PollHabNectPlants_4_MH": null,
        "PollHabNectPlants_5_TT": null,
        "PollHabNectPlants_8_BMM": null,
        "PollHabNectPlants_9_PB": null,
        "PollHabNectPlants_13_TPB": null,
        "PollHabNectPlants_18_NGFP": null,
        "NatLongSav_EstAcres": null,
        "NatLongSav_1_MMNWVC": null,
        "NatLongSav_2_NWVC": null,
        "NatLongSav_4_MH": null,
        "NatLongSav_5_TT": null,
        "NatLongSav_8_BMM": null,
        "NatLongSav_9_PB": null,
        "NatLongSav_13_TPB": null,
        "NatLongSav_18_NGFP": null,
        "MixedPineSav_EstAcres": null,
        "MixedPineSav_1_MMNWVC": null,
        "MixedPineSav_2_NWVC": null,
        "MixedPineSav_4_MH": null,
        "MixedPineSav_5_TT": null,
        "MixedPineSav_8_BMM": null,
        "MixedPineSav_9_PB": null,
        "MixedPineSav_12_TPB": null,
        "MixedPineSav_18_NGFP": null,
        "GrazLandswCP_EstAcres": null,
        "GrazLandswCP_1_MMNWVC": null,
        "GrazLandswCP_2_NWVC": null,
        "GrazLandswCP_4_MH": null,
        "GrazLandswCP_5_TT": null,
        "GrazLandswCP_8_BMM": null,
        "GrazLandswCP_9_PB": null,
        "GrazLandswCP_13_TPB": null,
        "GrazLandswCP_18_NGFP": null,
        "CroplandwCP_EstAcres": null,
        "CroplandwCP_1_MMNWVC": null,
        "CroplandwCP_2_NWVC": null,
        "CroplandwCP_4_MH": null,
        "CroplandwCP_5_TT": null,
        "CroplandwCP_8_BMM": null,
        "CroplandwCP_9_PB": null,
        "CroplandwCP_13_TPB": null,
        "CroplandwCP_18_NGFP": null,
        "Calculation_ANCHOR_ACRES_TOTAL": 352,
        "ANCHOR_Ownership": "public",
        "ANCHOR_OwnershipConfidence": "high"
      },
      "geometry": {
        "type": "Point",
        "coordinates": [
          -95.80448976579959,
          38.502082781358475
        ]
      }
    },
    {
      "type": "Feature",
      "properties": {
        "ANCHOR_SiteName": "Tipover and North Coves",
        "NatGrass_EstAcres": 717,
        "NatGrass_1_MMNWVC": null,
        "NatGrass_2_NWVC": 50,
        "NatGrass_4_MH": 573,
        "NatGrass_5_TT": null,
        "NatGrass_8_BMM": null,
        "NatGrass_9_PB": 94,
        "NatGrass_13_TPB": null,
        "NatGrass_18_NGFP": 267,
        "PollHabMilkweed_EstAcres": 15,
        "PollHabMilkweed_1_MMNWVC": null,
        "PollHabMilkweed_2_NWVC": null,
        "PollHabMilkweed_4_MH": 15,
        "PollHabMilkweed_5_TT": null,
        "PollHabMilkweed_8_BMM": null,
        "PollHabMilkweed_9_PB": null,
        "PollHabMilkweed_13_TPB": null,
        "PollHabMilkweed_18_NGFP": null,
        "PollHabNectPlants_EstAcres": 35,
        "PollHabNectPlants_1_MMNWVC": null,
        "PollHabNectPlants_2_NWVC": null,
        "PollHabNectPlants_4_MH": 35,
        "PollHabNectPlants_5_TT": null,
        "PollHabNectPlants_8_BMM": null,
        "PollHabNectPlants_9_PB": null,
        "PollHabNectPlants_13_TPB": null,
        "PollHabNectPlants_18_NGFP": null,
        "NatLongSav_EstAcres": null,
        "NatLongSav_1_MMNWVC": null,
        "NatLongSav_2_NWVC": null,
        "NatLongSav_4_MH": null,
        "NatLongSav_5_TT": null,
        "NatLongSav_8_BMM": null,
        "NatLongSav_9_PB": null,
        "NatLongSav_13_TPB": null,
        "NatLongSav_18_NGFP": null,
        "MixedPineSav_EstAcres": null,
        "MixedPineSav_1_MMNWVC": null,
        "MixedPineSav_2_NWVC": null,
        "MixedPineSav_4_MH": null,
        "MixedPineSav_5_TT": null,
        "MixedPineSav_8_BMM": null,
        "MixedPineSav_9_PB": null,
        "MixedPineSav_12_TPB": null,
        "MixedPineSav_18_NGFP": null,
        "GrazLandswCP_EstAcres": 0,
        "GrazLandswCP_1_MMNWVC": null,
        "GrazLandswCP_2_NWVC": null,
        "GrazLandswCP_4_MH": null,
        "GrazLandswCP_5_TT": null,
        "GrazLandswCP_8_BMM": null,
        "GrazLandswCP_9_PB": null,
        "GrazLandswCP_13_TPB": null,
        "GrazLandswCP_18_NGFP": null,
        "CroplandwCP_EstAcres": 100,
        "CroplandwCP_1_MMNWVC": null,
        "CroplandwCP_2_NWVC": null,
        "CroplandwCP_4_MH": 100,
        "CroplandwCP_5_TT": null,
        "CroplandwCP_8_BMM": null,
        "CroplandwCP_9_PB": null,
        "CroplandwCP_13_TPB": null,
        "CroplandwCP_18_NGFP": null,
        "Calculation_ANCHOR_ACRES_TOTAL": 867,
        "ANCHOR_Ownership": "public",
        "ANCHOR_OwnershipConfidence": "high"
      },
      "geometry": {
        "type": "Point",
        "coordinates": [
          -99.28862933396829,
          40.078593261490894
        ]
      }
    },
    {
      "type": "Feature",
      "properties": {
        "ANCHOR_SiteName": "North Shore",
        "NatGrass_EstAcres": 1000,
        "NatGrass_1_MMNWVC": null,
        "NatGrass_2_NWVC": 500,
        "NatGrass_4_MH": 350,
        "NatGrass_5_TT": null,
        "NatGrass_8_BMM": null,
        "NatGrass_9_PB": 50,
        "NatGrass_13_TPB": null,
        "NatGrass_18_NGFP": 350,
        "PollHabMilkweed_EstAcres": 30,
        "PollHabMilkweed_1_MMNWVC": null,
        "PollHabMilkweed_2_NWVC": null,
        "PollHabMilkweed_4_MH": null,
        "PollHabMilkweed_5_TT": null,
        "PollHabMilkweed_8_BMM": null,
        "PollHabMilkweed_9_PB": null,
        "PollHabMilkweed_13_TPB": null,
        "PollHabMilkweed_18_NGFP": null,
        "PollHabNectPlants_EstAcres": 25,
        "PollHabNectPlants_1_MMNWVC": null,
        "PollHabNectPlants_2_NWVC": null,
        "PollHabNectPlants_4_MH": null,
        "PollHabNectPlants_5_TT": null,
        "PollHabNectPlants_8_BMM": null,
        "PollHabNectPlants_9_PB": null,
        "PollHabNectPlants_13_TPB": null,
        "PollHabNectPlants_18_NGFP": null,
        "NatLongSav_EstAcres": null,
        "NatLongSav_1_MMNWVC": null,
        "NatLongSav_2_NWVC": null,
        "NatLongSav_4_MH": null,
        "NatLongSav_5_TT": null,
        "NatLongSav_8_BMM": null,
        "NatLongSav_9_PB": null,
        "NatLongSav_13_TPB": null,
        "NatLongSav_18_NGFP": null,
        "MixedPineSav_EstAcres": null,
        "MixedPineSav_1_MMNWVC": null,
        "MixedPineSav_2_NWVC": null,
        "MixedPineSav_4_MH": null,
        "MixedPineSav_5_TT": null,
        "MixedPineSav_8_BMM": null,
        "MixedPineSav_9_PB": null,
        "MixedPineSav_12_TPB": null,
        "MixedPineSav_18_NGFP": null,
        "GrazLandswCP_EstAcres": 250,
        "GrazLandswCP_1_MMNWVC": null,
        "GrazLandswCP_2_NWVC": null,
        "GrazLandswCP_4_MH": null,
        "GrazLandswCP_5_TT": null,
        "GrazLandswCP_8_BMM": null,
        "GrazLandswCP_9_PB": null,
        "GrazLandswCP_13_TPB": null,
        "GrazLandswCP_18_NGFP": null,
        "CroplandwCP_EstAcres": 300,
        "CroplandwCP_1_MMNWVC": null,
        "CroplandwCP_2_NWVC": null,
        "CroplandwCP_4_MH": null,
        "CroplandwCP_5_TT": null,
        "CroplandwCP_8_BMM": null,
        "CroplandwCP_9_PB": null,
        "CroplandwCP_13_TPB": null,
        "CroplandwCP_18_NGFP": null,
        "Calculation_ANCHOR_ACRES_TOTAL": 1733,
        "ANCHOR_Ownership": "public",
        "ANCHOR_OwnershipConfidence": "high"
      },
      "geometry": {
        "type": "Point",
        "coordinates": [
          -99.23217878469971,
          40.08529643886321
        ]
      }
    },
    {
      "type": "Feature",
      "properties": {
        "ANCHOR_SiteName": "Melrose Air Force Range",
        "NatGrass_EstAcres": 0,
        "NatGrass_1_MMNWVC": null,
        "NatGrass_2_NWVC": null,
        "NatGrass_4_MH": null,
        "NatGrass_5_TT": null,
        "NatGrass_8_BMM": null,
        "NatGrass_9_PB": null,
        "NatGrass_13_TPB": null,
        "NatGrass_18_NGFP": null,
        "PollHabMilkweed_EstAcres": 0,
        "PollHabMilkweed_1_MMNWVC": null,
        "PollHabMilkweed_2_NWVC": null,
        "PollHabMilkweed_4_MH": null,
        "PollHabMilkweed_5_TT": null,
        "PollHabMilkweed_8_BMM": null,
        "PollHabMilkweed_9_PB": null,
        "PollHabMilkweed_13_TPB": null,
        "PollHabMilkweed_18_NGFP": null,
        "PollHabNectPlants_EstAcres": 0,
        "PollHabNectPlants_1_MMNWVC": null,
        "PollHabNectPlants_2_NWVC": null,
        "PollHabNectPlants_4_MH": null,
        "PollHabNectPlants_5_TT": null,
        "PollHabNectPlants_8_BMM": null,
        "PollHabNectPlants_9_PB": null,
        "PollHabNectPlants_13_TPB": null,
        "PollHabNectPlants_18_NGFP": null,
        "NatLongSav_EstAcres": null,
        "NatLongSav_1_MMNWVC": null,
        "NatLongSav_2_NWVC": null,
        "NatLongSav_4_MH": null,
        "NatLongSav_5_TT": null,
        "NatLongSav_8_BMM": null,
        "NatLongSav_9_PB": null,
        "NatLongSav_13_TPB": null,
        "NatLongSav_18_NGFP": null,
        "MixedPineSav_EstAcres": null,
        "MixedPineSav_1_MMNWVC": null,
        "MixedPineSav_2_NWVC": null,
        "MixedPineSav_4_MH": null,
        "MixedPineSav_5_TT": null,
        "MixedPineSav_8_BMM": null,
        "MixedPineSav_9_PB": null,
        "MixedPineSav_12_TPB": null,
        "MixedPineSav_18_NGFP": null,
        "GrazLandswCP_EstAcres": null,
        "GrazLandswCP_1_MMNWVC": null,
        "GrazLandswCP_2_NWVC": null,
        "GrazLandswCP_4_MH": null,
        "GrazLandswCP_5_TT": null,
        "GrazLandswCP_8_BMM": null,
        "GrazLandswCP_9_PB": null,
        "GrazLandswCP_13_TPB": null,
        "GrazLandswCP_18_NGFP": null,
        "CroplandwCP_EstAcres": null,
        "CroplandwCP_1_MMNWVC": null,
        "CroplandwCP_2_NWVC": null,
        "CroplandwCP_4_MH": null,
        "CroplandwCP_5_TT": null,
        "CroplandwCP_8_BMM": null,
        "CroplandwCP_9_PB": null,
        "CroplandwCP_13_TPB": null,
        "CroplandwCP_18_NGFP": null,
        "Calculation_ANCHOR_ACRES_TOTAL": 0,
        "ANCHOR_Ownership": "public",
        "ANCHOR_OwnershipConfidence": "high"
      },
      "geometry": {
        "type": "Point",
        "coordinates": [
          -103.76638686617575,
          34.29618757296249
        ]
      }
    },
    {
      "type": "Feature",
      "properties": {
        "ANCHOR_SiteName": "Rathbun Lake",
        "NatGrass_EstAcres": 701,
        "NatGrass_1_MMNWVC": 100,
        "NatGrass_2_NWVC": 0,
        "NatGrass_4_MH": 0,
        "NatGrass_5_TT": 0,
        "NatGrass_8_BMM": 200,
        "NatGrass_9_PB": 383,
        "NatGrass_13_TPB": 0,
        "NatGrass_18_NGFP": 0,
        "PollHabMilkweed_EstAcres": null,
        "PollHabMilkweed_1_MMNWVC": null,
        "PollHabMilkweed_2_NWVC": null,
        "PollHabMilkweed_4_MH": null,
        "PollHabMilkweed_5_TT": null,
        "PollHabMilkweed_8_BMM": null,
        "PollHabMilkweed_9_PB": null,
        "PollHabMilkweed_13_TPB": null,
        "PollHabMilkweed_18_NGFP": null,
        "PollHabNectPlants_EstAcres": 250,
        "PollHabNectPlants_1_MMNWVC": 0,
        "PollHabNectPlants_2_NWVC": 0,
        "PollHabNectPlants_4_MH": 0,
        "PollHabNectPlants_5_TT": 0,
        "PollHabNectPlants_8_BMM": 50,
        "PollHabNectPlants_9_PB": 200,
        "PollHabNectPlants_13_TPB": 0,
        "PollHabNectPlants_18_NGFP": 0,
        "NatLongSav_EstAcres": null,
        "NatLongSav_1_MMNWVC": null,
        "NatLongSav_2_NWVC": null,
        "NatLongSav_4_MH": null,
        "NatLongSav_5_TT": null,
        "NatLongSav_8_BMM": null,
        "NatLongSav_9_PB": null,
        "NatLongSav_13_TPB": null,
        "NatLongSav_18_NGFP": null,
        "MixedPineSav_EstAcres": 100,
        "MixedPineSav_1_MMNWVC": 0,
        "MixedPineSav_2_NWVC": 0,
        "MixedPineSav_4_MH": 0,
        "MixedPineSav_5_TT": 0,
        "MixedPineSav_8_BMM": 50,
        "MixedPineSav_9_PB": 50,
        "MixedPineSav_12_TPB": 0,
        "MixedPineSav_18_NGFP": 0,
        "GrazLandswCP_EstAcres": null,
        "GrazLandswCP_1_MMNWVC": null,
        "GrazLandswCP_2_NWVC": null,
        "GrazLandswCP_4_MH": null,
        "GrazLandswCP_5_TT": null,
        "GrazLandswCP_8_BMM": null,
        "GrazLandswCP_9_PB": null,
        "GrazLandswCP_13_TPB": null,
        "GrazLandswCP_18_NGFP": null,
        "CroplandwCP_EstAcres": null,
        "CroplandwCP_1_MMNWVC": null,
        "CroplandwCP_2_NWVC": null,
        "CroplandwCP_4_MH": null,
        "CroplandwCP_5_TT": null,
        "CroplandwCP_8_BMM": null,
        "CroplandwCP_9_PB": null,
        "CroplandwCP_13_TPB": null,
        "CroplandwCP_18_NGFP": null,
        "Calculation_ANCHOR_ACRES_TOTAL": 1051,
        "ANCHOR_Ownership": "public",
        "ANCHOR_OwnershipConfidence": "high"
      },
      "geometry": {
        "type": "Point",
        "coordinates": [
          -92.90689380255607,
          40.82238180961292
        ]
      }
    },
    {
      "type": "Feature",
      "properties": {
        "ANCHOR_SiteName": "Stockton Lake (Masters and Hawker Point South)",
        "NatGrass_EstAcres": 90,
        "NatGrass_1_MMNWVC": 0,
        "NatGrass_2_NWVC": 30,
        "NatGrass_4_MH": 50,
        "NatGrass_5_TT": 40,
        "NatGrass_8_BMM": 10,
        "NatGrass_9_PB": 800,
        "NatGrass_13_TPB": 0,
        "NatGrass_18_NGFP": 10,
        "PollHabMilkweed_EstAcres": null,
        "PollHabMilkweed_1_MMNWVC": null,
        "PollHabMilkweed_2_NWVC": null,
        "PollHabMilkweed_4_MH": null,
        "PollHabMilkweed_5_TT": null,
        "PollHabMilkweed_8_BMM": null,
        "PollHabMilkweed_9_PB": null,
        "PollHabMilkweed_13_TPB": null,
        "PollHabMilkweed_18_NGFP": null,
        "PollHabNectPlants_EstAcres": null,
        "PollHabNectPlants_1_MMNWVC": null,
        "PollHabNectPlants_2_NWVC": null,
        "PollHabNectPlants_4_MH": null,
        "PollHabNectPlants_5_TT": null,
        "PollHabNectPlants_8_BMM": null,
        "PollHabNectPlants_9_PB": null,
        "PollHabNectPlants_13_TPB": null,
        "PollHabNectPlants_18_NGFP": null,
        "NatLongSav_EstAcres": null,
        "NatLongSav_1_MMNWVC": null,
        "NatLongSav_2_NWVC": null,
        "NatLongSav_4_MH": null,
        "NatLongSav_5_TT": null,
        "NatLongSav_8_BMM": null,
        "NatLongSav_9_PB": null,
        "NatLongSav_13_TPB": null,
        "NatLongSav_18_NGFP": null,
        "MixedPineSav_EstAcres": null,
        "MixedPineSav_1_MMNWVC": null,
        "MixedPineSav_2_NWVC": null,
        "MixedPineSav_4_MH": null,
        "MixedPineSav_5_TT": null,
        "MixedPineSav_8_BMM": null,
        "MixedPineSav_9_PB": null,
        "MixedPineSav_12_TPB": null,
        "MixedPineSav_18_NGFP": null,
        "GrazLandswCP_EstAcres": null,
        "GrazLandswCP_1_MMNWVC": null,
        "GrazLandswCP_2_NWVC": null,
        "GrazLandswCP_4_MH": null,
        "GrazLandswCP_5_TT": null,
        "GrazLandswCP_8_BMM": null,
        "GrazLandswCP_9_PB": null,
        "GrazLandswCP_13_TPB": null,
        "GrazLandswCP_18_NGFP": null,
        "CroplandwCP_EstAcres": null,
        "CroplandwCP_1_MMNWVC": null,
        "CroplandwCP_2_NWVC": null,
        "CroplandwCP_4_MH": null,
        "CroplandwCP_5_TT": null,
        "CroplandwCP_8_BMM": null,
        "CroplandwCP_9_PB": null,
        "CroplandwCP_13_TPB": null,
        "CroplandwCP_18_NGFP": null,
        "Calculation_ANCHOR_ACRES_TOTAL": 1154,
        "ANCHOR_Ownership": "public",
        "ANCHOR_OwnershipConfidence": "high"
      },
      "geometry": {
        "type": "Point",
        "coordinates": [
          -93.68075665565584,
          37.59990592393194
        ]
      }
    },
    {
      "type": "Feature",
      "properties": {
        "ANCHOR_SiteName": "Wilson Lake Admin Grazing",
        "NatGrass_EstAcres": 331,
        "NatGrass_1_MMNWVC": 30,
        "NatGrass_2_NWVC": 0,
        "NatGrass_4_MH": 0,
        "NatGrass_5_TT": 0,
        "NatGrass_8_BMM": 10,
        "NatGrass_9_PB": 150,
        "NatGrass_13_TPB": 0,
        "NatGrass_18_NGFP": 0,
        "PollHabMilkweed_EstAcres": null,
        "PollHabMilkweed_1_MMNWVC": null,
        "PollHabMilkweed_2_NWVC": null,
        "PollHabMilkweed_4_MH": null,
        "PollHabMilkweed_5_TT": null,
        "PollHabMilkweed_8_BMM": null,
        "PollHabMilkweed_9_PB": null,
        "PollHabMilkweed_13_TPB": null,
        "PollHabMilkweed_18_NGFP": null,
        "PollHabNectPlants_EstAcres": null,
        "PollHabNectPlants_1_MMNWVC": null,
        "PollHabNectPlants_2_NWVC": null,
        "PollHabNectPlants_4_MH": null,
        "PollHabNectPlants_5_TT": null,
        "PollHabNectPlants_8_BMM": null,
        "PollHabNectPlants_9_PB": null,
        "PollHabNectPlants_13_TPB": null,
        "PollHabNectPlants_18_NGFP": null,
        "NatLongSav_EstAcres": null,
        "NatLongSav_1_MMNWVC": null,
        "NatLongSav_2_NWVC": null,
        "NatLongSav_4_MH": null,
        "NatLongSav_5_TT": null,
        "NatLongSav_8_BMM": null,
        "NatLongSav_9_PB": null,
        "NatLongSav_13_TPB": null,
        "NatLongSav_18_NGFP": null,
        "MixedPineSav_EstAcres": null,
        "MixedPineSav_1_MMNWVC": null,
        "MixedPineSav_2_NWVC": null,
        "MixedPineSav_4_MH": null,
        "MixedPineSav_5_TT": null,
        "MixedPineSav_8_BMM": null,
        "MixedPineSav_9_PB": null,
        "MixedPineSav_12_TPB": null,
        "MixedPineSav_18_NGFP": null,
        "GrazLandswCP_EstAcres": null,
        "GrazLandswCP_1_MMNWVC": null,
        "GrazLandswCP_2_NWVC": null,
        "GrazLandswCP_4_MH": null,
        "GrazLandswCP_5_TT": null,
        "GrazLandswCP_8_BMM": null,
        "GrazLandswCP_9_PB": null,
        "GrazLandswCP_13_TPB": null,
        "GrazLandswCP_18_NGFP": null,
        "CroplandwCP_EstAcres": null,
        "CroplandwCP_1_MMNWVC": null,
        "CroplandwCP_2_NWVC": null,
        "CroplandwCP_4_MH": null,
        "CroplandwCP_5_TT": null,
        "CroplandwCP_8_BMM": null,
        "CroplandwCP_9_PB": null,
        "CroplandwCP_13_TPB": null,
        "CroplandwCP_18_NGFP": null,
        "Calculation_ANCHOR_ACRES_TOTAL": 331,
        "ANCHOR_Ownership": "public",
        "ANCHOR_OwnershipConfidence": "high"
      },
      "geometry": {
        "type": "Point",
        "coordinates": [
          -98.48080871218443,
          38.96045031618772
        ]
      }
    },
    {
      "type": "Feature",
      "properties": {
        "ANCHOR_SiteName": "Kanopolis Lake ",
        "NatGrass_EstAcres": 1510,
        "NatGrass_1_MMNWVC": 0,
        "NatGrass_2_NWVC": 5,
        "NatGrass_4_MH": 196,
        "NatGrass_5_TT": 60,
        "NatGrass_8_BMM": 50,
        "NatGrass_9_PB": 1400,
        "NatGrass_13_TPB": 0,
        "NatGrass_18_NGFP": 60,
        "PollHabMilkweed_EstAcres": 10,
        "PollHabMilkweed_1_MMNWVC": 1,
        "PollHabMilkweed_2_NWVC": 3,
        "PollHabMilkweed_4_MH": 3,
        "PollHabMilkweed_5_TT": 0,
        "PollHabMilkweed_8_BMM": 1,
        "PollHabMilkweed_9_PB": 10,
        "PollHabMilkweed_13_TPB": 0,
        "PollHabMilkweed_18_NGFP": 5,
        "PollHabNectPlants_EstAcres": 200,
        "PollHabNectPlants_1_MMNWVC": 0,
        "PollHabNectPlants_2_NWVC": 2,
        "PollHabNectPlants_4_MH": 75,
        "PollHabNectPlants_5_TT": 0,
        "PollHabNectPlants_8_BMM": 20,
        "PollHabNectPlants_9_PB": 200,
        "PollHabNectPlants_13_TPB": 0,
        "PollHabNectPlants_18_NGFP": 25,
        "NatLongSav_EstAcres": null,
        "NatLongSav_1_MMNWVC": null,
        "NatLongSav_2_NWVC": null,
        "NatLongSav_4_MH": null,
        "NatLongSav_5_TT": null,
        "NatLongSav_8_BMM": null,
        "NatLongSav_9_PB": null,
        "NatLongSav_13_TPB": null,
        "NatLongSav_18_NGFP": null,
        "MixedPineSav_EstAcres": null,
        "MixedPineSav_1_MMNWVC": null,
        "MixedPineSav_2_NWVC": null,
        "MixedPineSav_4_MH": null,
        "MixedPineSav_5_TT": null,
        "MixedPineSav_8_BMM": null,
        "MixedPineSav_9_PB": null,
        "MixedPineSav_12_TPB": null,
        "MixedPineSav_18_NGFP": null,
        "GrazLandswCP_EstAcres": 1300,
        "GrazLandswCP_1_MMNWVC": 1,
        "GrazLandswCP_2_NWVC": 5,
        "GrazLandswCP_4_MH": 5,
        "GrazLandswCP_5_TT": 0,
        "GrazLandswCP_8_BMM": 40,
        "GrazLandswCP_9_PB": 1400,
        "GrazLandswCP_13_TPB": 0,
        "GrazLandswCP_18_NGFP": 0,
        "CroplandwCP_EstAcres": 270,
        "CroplandwCP_1_MMNWVC": 10,
        "CroplandwCP_2_NWVC": 270,
        "CroplandwCP_4_MH": 0,
        "CroplandwCP_5_TT": 0,
        "CroplandwCP_8_BMM": 0,
        "CroplandwCP_9_PB": 0,
        "CroplandwCP_13_TPB": 0,
        "CroplandwCP_18_NGFP": 0,
        "Calculation_ANCHOR_ACRES_TOTAL": 2271,
        "ANCHOR_Ownership": "public",
        "ANCHOR_OwnershipConfidence": "high"
      },
      "geometry": {
        "type": "Point",
        "coordinates": [
          -97.96555295089219,
          38.62698848590759
        ]
      }
    },
    {
      "type": "Feature",
      "properties": {
        "ANCHOR_SiteName": "Spring Creek Prairie",
        "NatGrass_EstAcres": 212,
        "NatGrass_1_MMNWVC": 212,
        "NatGrass_2_NWVC": 212,
        "NatGrass_4_MH": 0,
        "NatGrass_5_TT": 10,
        "NatGrass_8_BMM": 0,
        "NatGrass_9_PB": 212,
        "NatGrass_13_TPB": 50,
        "NatGrass_18_NGFP": 212,
        "PollHabMilkweed_EstAcres": null,
        "PollHabMilkweed_1_MMNWVC": null,
        "PollHabMilkweed_2_NWVC": null,
        "PollHabMilkweed_4_MH": null,
        "PollHabMilkweed_5_TT": null,
        "PollHabMilkweed_8_BMM": null,
        "PollHabMilkweed_9_PB": null,
        "PollHabMilkweed_13_TPB": null,
        "PollHabMilkweed_18_NGFP": null,
        "PollHabNectPlants_EstAcres": null,
        "PollHabNectPlants_1_MMNWVC": null,
        "PollHabNectPlants_2_NWVC": null,
        "PollHabNectPlants_4_MH": null,
        "PollHabNectPlants_5_TT": null,
        "PollHabNectPlants_8_BMM": null,
        "PollHabNectPlants_9_PB": null,
        "PollHabNectPlants_13_TPB": null,
        "PollHabNectPlants_18_NGFP": null,
        "NatLongSav_EstAcres": null,
        "NatLongSav_1_MMNWVC": null,
        "NatLongSav_2_NWVC": null,
        "NatLongSav_4_MH": null,
        "NatLongSav_5_TT": null,
        "NatLongSav_8_BMM": null,
        "NatLongSav_9_PB": null,
        "NatLongSav_13_TPB": null,
        "NatLongSav_18_NGFP": null,
        "MixedPineSav_EstAcres": null,
        "MixedPineSav_1_MMNWVC": null,
        "MixedPineSav_2_NWVC": null,
        "MixedPineSav_4_MH": null,
        "MixedPineSav_5_TT": null,
        "MixedPineSav_8_BMM": null,
        "MixedPineSav_9_PB": null,
        "MixedPineSav_12_TPB": null,
        "MixedPineSav_18_NGFP": null,
        "GrazLandswCP_EstAcres": null,
        "GrazLandswCP_1_MMNWVC": null,
        "GrazLandswCP_2_NWVC": null,
        "GrazLandswCP_4_MH": null,
        "GrazLandswCP_5_TT": null,
        "GrazLandswCP_8_BMM": null,
        "GrazLandswCP_9_PB": null,
        "GrazLandswCP_13_TPB": null,
        "GrazLandswCP_18_NGFP": null,
        "CroplandwCP_EstAcres": null,
        "CroplandwCP_1_MMNWVC": null,
        "CroplandwCP_2_NWVC": null,
        "CroplandwCP_4_MH": null,
        "CroplandwCP_5_TT": null,
        "CroplandwCP_8_BMM": null,
        "CroplandwCP_9_PB": null,
        "CroplandwCP_13_TPB": null,
        "CroplandwCP_18_NGFP": null,
        "Calculation_ANCHOR_ACRES_TOTAL": 212,
        "ANCHOR_Ownership": "non-profit",
        "ANCHOR_OwnershipConfidence": "low"
      },
      "geometry": {
        "type": "Point",
        "coordinates": [
          -87.26823586218744,
          36.617608314493076
        ]
      }
    },
    {
      "type": "Feature",
      "properties": {
        "ANCHOR_SiteName": "Dunbar Cave Prairie",
        "NatGrass_EstAcres": 11,
        "NatGrass_1_MMNWVC": 11,
        "NatGrass_2_NWVC": 11,
        "NatGrass_4_MH": 11,
        "NatGrass_5_TT": 1,
        "NatGrass_8_BMM": 11,
        "NatGrass_9_PB": 11,
        "NatGrass_13_TPB": 0,
        "NatGrass_18_NGFP": 11,
        "PollHabMilkweed_EstAcres": null,
        "PollHabMilkweed_1_MMNWVC": null,
        "PollHabMilkweed_2_NWVC": null,
        "PollHabMilkweed_4_MH": null,
        "PollHabMilkweed_5_TT": null,
        "PollHabMilkweed_8_BMM": null,
        "PollHabMilkweed_9_PB": null,
        "PollHabMilkweed_13_TPB": null,
        "PollHabMilkweed_18_NGFP": null,
        "PollHabNectPlants_EstAcres": null,
        "PollHabNectPlants_1_MMNWVC": null,
        "PollHabNectPlants_2_NWVC": null,
        "PollHabNectPlants_4_MH": null,
        "PollHabNectPlants_5_TT": null,
        "PollHabNectPlants_8_BMM": null,
        "PollHabNectPlants_9_PB": null,
        "PollHabNectPlants_13_TPB": null,
        "PollHabNectPlants_18_NGFP": null,
        "NatLongSav_EstAcres": null,
        "NatLongSav_1_MMNWVC": null,
        "NatLongSav_2_NWVC": null,
        "NatLongSav_4_MH": null,
        "NatLongSav_5_TT": null,
        "NatLongSav_8_BMM": null,
        "NatLongSav_9_PB": null,
        "NatLongSav_13_TPB": null,
        "NatLongSav_18_NGFP": null,
        "MixedPineSav_EstAcres": null,
        "MixedPineSav_1_MMNWVC": null,
        "MixedPineSav_2_NWVC": null,
        "MixedPineSav_4_MH": null,
        "MixedPineSav_5_TT": null,
        "MixedPineSav_8_BMM": null,
        "MixedPineSav_9_PB": null,
        "MixedPineSav_12_TPB": null,
        "MixedPineSav_18_NGFP": null,
        "GrazLandswCP_EstAcres": null,
        "GrazLandswCP_1_MMNWVC": null,
        "GrazLandswCP_2_NWVC": null,
        "GrazLandswCP_4_MH": null,
        "GrazLandswCP_5_TT": null,
        "GrazLandswCP_8_BMM": null,
        "GrazLandswCP_9_PB": null,
        "GrazLandswCP_13_TPB": null,
        "GrazLandswCP_18_NGFP": null,
        "CroplandwCP_EstAcres": null,
        "CroplandwCP_1_MMNWVC": null,
        "CroplandwCP_2_NWVC": null,
        "CroplandwCP_4_MH": null,
        "CroplandwCP_5_TT": null,
        "CroplandwCP_8_BMM": null,
        "CroplandwCP_9_PB": null,
        "CroplandwCP_13_TPB": null,
        "CroplandwCP_18_NGFP": null,
        "Calculation_ANCHOR_ACRES_TOTAL": 11,
        "ANCHOR_Ownership": "public",
        "ANCHOR_OwnershipConfidence": "high"
      },
      "geometry": {
        "type": "Point",
        "coordinates": [
          -87.30385695798543,
          36.56065793403946
        ]
      }
    },
    {
      "type": "Feature",
      "properties": {
        "ANCHOR_SiteName": "Guthrie Wet Prairie",
        "NatGrass_EstAcres": 6,
        "NatGrass_1_MMNWVC": 0,
        "NatGrass_2_NWVC": 6,
        "NatGrass_4_MH": 6,
        "NatGrass_5_TT": 0,
        "NatGrass_8_BMM": 6,
        "NatGrass_9_PB": 6,
        "NatGrass_13_TPB": 0,
        "NatGrass_18_NGFP": 0,
        "PollHabMilkweed_EstAcres": null,
        "PollHabMilkweed_1_MMNWVC": null,
        "PollHabMilkweed_2_NWVC": null,
        "PollHabMilkweed_4_MH": null,
        "PollHabMilkweed_5_TT": null,
        "PollHabMilkweed_8_BMM": null,
        "PollHabMilkweed_9_PB": null,
        "PollHabMilkweed_13_TPB": null,
        "PollHabMilkweed_18_NGFP": null,
        "PollHabNectPlants_EstAcres": null,
        "PollHabNectPlants_1_MMNWVC": null,
        "PollHabNectPlants_2_NWVC": null,
        "PollHabNectPlants_4_MH": null,
        "PollHabNectPlants_5_TT": null,
        "PollHabNectPlants_8_BMM": null,
        "PollHabNectPlants_9_PB": null,
        "PollHabNectPlants_13_TPB": null,
        "PollHabNectPlants_18_NGFP": null,
        "NatLongSav_EstAcres": null,
        "NatLongSav_1_MMNWVC": null,
        "NatLongSav_2_NWVC": null,
        "NatLongSav_4_MH": null,
        "NatLongSav_5_TT": null,
        "NatLongSav_8_BMM": null,
        "NatLongSav_9_PB": null,
        "NatLongSav_13_TPB": null,
        "NatLongSav_18_NGFP": null,
        "MixedPineSav_EstAcres": null,
        "MixedPineSav_1_MMNWVC": null,
        "MixedPineSav_2_NWVC": null,
        "MixedPineSav_4_MH": null,
        "MixedPineSav_5_TT": null,
        "MixedPineSav_8_BMM": null,
        "MixedPineSav_9_PB": null,
        "MixedPineSav_12_TPB": null,
        "MixedPineSav_18_NGFP": null,
        "GrazLandswCP_EstAcres": null,
        "GrazLandswCP_1_MMNWVC": null,
        "GrazLandswCP_2_NWVC": null,
        "GrazLandswCP_4_MH": null,
        "GrazLandswCP_5_TT": null,
        "GrazLandswCP_8_BMM": null,
        "GrazLandswCP_9_PB": null,
        "GrazLandswCP_13_TPB": null,
        "GrazLandswCP_18_NGFP": null,
        "CroplandwCP_EstAcres": null,
        "CroplandwCP_1_MMNWVC": null,
        "CroplandwCP_2_NWVC": null,
        "CroplandwCP_4_MH": null,
        "CroplandwCP_5_TT": null,
        "CroplandwCP_8_BMM": null,
        "CroplandwCP_9_PB": null,
        "CroplandwCP_13_TPB": null,
        "CroplandwCP_18_NGFP": null,
        "Calculation_ANCHOR_ACRES_TOTAL": 6,
        "ANCHOR_Ownership": "non-profit",
        "ANCHOR_OwnershipConfidence": "low"
      },
      "geometry": {
        "type": "Point",
        "coordinates": [
          -87.15683037305055,
          36.64158530016178
        ]
      }
    },
    {
      "type": "Feature",
      "properties": {
        "ANCHOR_SiteName": "Barnett Woods and Prairie State Natural Area",
        "NatGrass_EstAcres": 300,
        "NatGrass_1_MMNWVC": 0,
        "NatGrass_2_NWVC": 300,
        "NatGrass_4_MH": 300,
        "NatGrass_5_TT": 75,
        "NatGrass_8_BMM": 300,
        "NatGrass_9_PB": 300,
        "NatGrass_13_TPB": 50,
        "NatGrass_18_NGFP": 240,
        "PollHabMilkweed_EstAcres": null,
        "PollHabMilkweed_1_MMNWVC": null,
        "PollHabMilkweed_2_NWVC": null,
        "PollHabMilkweed_4_MH": null,
        "PollHabMilkweed_5_TT": null,
        "PollHabMilkweed_8_BMM": null,
        "PollHabMilkweed_9_PB": null,
        "PollHabMilkweed_13_TPB": null,
        "PollHabMilkweed_18_NGFP": null,
        "PollHabNectPlants_EstAcres": null,
        "PollHabNectPlants_1_MMNWVC": null,
        "PollHabNectPlants_2_NWVC": null,
        "PollHabNectPlants_4_MH": null,
        "PollHabNectPlants_5_TT": null,
        "PollHabNectPlants_8_BMM": null,
        "PollHabNectPlants_9_PB": null,
        "PollHabNectPlants_13_TPB": null,
        "PollHabNectPlants_18_NGFP": null,
        "NatLongSav_EstAcres": null,
        "NatLongSav_1_MMNWVC": null,
        "NatLongSav_2_NWVC": null,
        "NatLongSav_4_MH": null,
        "NatLongSav_5_TT": null,
        "NatLongSav_8_BMM": null,
        "NatLongSav_9_PB": null,
        "NatLongSav_13_TPB": null,
        "NatLongSav_18_NGFP": null,
        "MixedPineSav_EstAcres": null,
        "MixedPineSav_1_MMNWVC": null,
        "MixedPineSav_2_NWVC": null,
        "MixedPineSav_4_MH": null,
        "MixedPineSav_5_TT": null,
        "MixedPineSav_8_BMM": null,
        "MixedPineSav_9_PB": null,
        "MixedPineSav_12_TPB": null,
        "MixedPineSav_18_NGFP": null,
        "GrazLandswCP_EstAcres": null,
        "GrazLandswCP_1_MMNWVC": null,
        "GrazLandswCP_2_NWVC": null,
        "GrazLandswCP_4_MH": null,
        "GrazLandswCP_5_TT": null,
        "GrazLandswCP_8_BMM": null,
        "GrazLandswCP_9_PB": null,
        "GrazLandswCP_13_TPB": null,
        "GrazLandswCP_18_NGFP": null,
        "CroplandwCP_EstAcres": null,
        "CroplandwCP_1_MMNWVC": null,
        "CroplandwCP_2_NWVC": null,
        "CroplandwCP_4_MH": null,
        "CroplandwCP_5_TT": null,
        "CroplandwCP_8_BMM": null,
        "CroplandwCP_9_PB": null,
        "CroplandwCP_13_TPB": null,
        "CroplandwCP_18_NGFP": null,
        "Calculation_ANCHOR_ACRES_TOTAL": 455,
        "ANCHOR_Ownership": "public",
        "ANCHOR_OwnershipConfidence": "high"
      },
      "geometry": {
        "type": "Point",
        "coordinates": [
          -87.55538619825307,
          36.52535577250627
        ]
      }
    },
    {
      "type": "Feature",
      "properties": {
        "ANCHOR_SiteName": "Cornelia Fort",
        "NatGrass_EstAcres": 112,
        "NatGrass_1_MMNWVC": 112,
        "NatGrass_2_NWVC": 112,
        "NatGrass_4_MH": 112,
        "NatGrass_5_TT": 0,
        "NatGrass_8_BMM": 0,
        "NatGrass_9_PB": 112,
        "NatGrass_13_TPB": 0,
        "NatGrass_18_NGFP": 112,
        "PollHabMilkweed_EstAcres": null,
        "PollHabMilkweed_1_MMNWVC": null,
        "PollHabMilkweed_2_NWVC": null,
        "PollHabMilkweed_4_MH": null,
        "PollHabMilkweed_5_TT": null,
        "PollHabMilkweed_8_BMM": null,
        "PollHabMilkweed_9_PB": null,
        "PollHabMilkweed_13_TPB": null,
        "PollHabMilkweed_18_NGFP": null,
        "PollHabNectPlants_EstAcres": null,
        "PollHabNectPlants_1_MMNWVC": null,
        "PollHabNectPlants_2_NWVC": null,
        "PollHabNectPlants_4_MH": null,
        "PollHabNectPlants_5_TT": null,
        "PollHabNectPlants_8_BMM": null,
        "PollHabNectPlants_9_PB": null,
        "PollHabNectPlants_13_TPB": null,
        "PollHabNectPlants_18_NGFP": null,
        "NatLongSav_EstAcres": null,
        "NatLongSav_1_MMNWVC": null,
        "NatLongSav_2_NWVC": null,
        "NatLongSav_4_MH": null,
        "NatLongSav_5_TT": null,
        "NatLongSav_8_BMM": null,
        "NatLongSav_9_PB": null,
        "NatLongSav_13_TPB": null,
        "NatLongSav_18_NGFP": null,
        "MixedPineSav_EstAcres": null,
        "MixedPineSav_1_MMNWVC": null,
        "MixedPineSav_2_NWVC": null,
        "MixedPineSav_4_MH": null,
        "MixedPineSav_5_TT": null,
        "MixedPineSav_8_BMM": null,
        "MixedPineSav_9_PB": null,
        "MixedPineSav_12_TPB": null,
        "MixedPineSav_18_NGFP": null,
        "GrazLandswCP_EstAcres": null,
        "GrazLandswCP_1_MMNWVC": null,
        "GrazLandswCP_2_NWVC": null,
        "GrazLandswCP_4_MH": null,
        "GrazLandswCP_5_TT": null,
        "GrazLandswCP_8_BMM": null,
        "GrazLandswCP_9_PB": null,
        "GrazLandswCP_13_TPB": null,
        "GrazLandswCP_18_NGFP": null,
        "CroplandwCP_EstAcres": null,
        "CroplandwCP_1_MMNWVC": null,
        "CroplandwCP_2_NWVC": null,
        "CroplandwCP_4_MH": null,
        "CroplandwCP_5_TT": null,
        "CroplandwCP_8_BMM": null,
        "CroplandwCP_9_PB": null,
        "CroplandwCP_13_TPB": null,
        "CroplandwCP_18_NGFP": null,
        "Calculation_ANCHOR_ACRES_TOTAL": 113,
        "ANCHOR_Ownership": "public",
        "ANCHOR_OwnershipConfidence": "medium"
      },
      "geometry": {
        "type": "Point",
        "coordinates": [
          -86.70142048116672,
          36.19119335126998
        ]
      }
    },
    {
      "type": "Feature",
      "properties": {
        "ANCHOR_SiteName": "King Savanna",
        "NatGrass_EstAcres": 72,
        "NatGrass_1_MMNWVC": 0,
        "NatGrass_2_NWVC": 72,
        "NatGrass_4_MH": 50,
        "NatGrass_5_TT": 40,
        "NatGrass_8_BMM": 10,
        "NatGrass_9_PB": 72,
        "NatGrass_13_TPB": 0,
        "NatGrass_18_NGFP": 0,
        "PollHabMilkweed_EstAcres": null,
        "PollHabMilkweed_1_MMNWVC": null,
        "PollHabMilkweed_2_NWVC": null,
        "PollHabMilkweed_4_MH": null,
        "PollHabMilkweed_5_TT": null,
        "PollHabMilkweed_8_BMM": null,
        "PollHabMilkweed_9_PB": null,
        "PollHabMilkweed_13_TPB": null,
        "PollHabMilkweed_18_NGFP": null,
        "PollHabNectPlants_EstAcres": null,
        "PollHabNectPlants_1_MMNWVC": null,
        "PollHabNectPlants_2_NWVC": null,
        "PollHabNectPlants_4_MH": null,
        "PollHabNectPlants_5_TT": null,
        "PollHabNectPlants_8_BMM": null,
        "PollHabNectPlants_9_PB": null,
        "PollHabNectPlants_13_TPB": null,
        "PollHabNectPlants_18_NGFP": null,
        "NatLongSav_EstAcres": null,
        "NatLongSav_1_MMNWVC": null,
        "NatLongSav_2_NWVC": null,
        "NatLongSav_4_MH": null,
        "NatLongSav_5_TT": null,
        "NatLongSav_8_BMM": null,
        "NatLongSav_9_PB": null,
        "NatLongSav_13_TPB": null,
        "NatLongSav_18_NGFP": null,
        "MixedPineSav_EstAcres": null,
        "MixedPineSav_1_MMNWVC": null,
        "MixedPineSav_2_NWVC": null,
        "MixedPineSav_4_MH": null,
        "MixedPineSav_5_TT": null,
        "MixedPineSav_8_BMM": null,
        "MixedPineSav_9_PB": null,
        "MixedPineSav_12_TPB": null,
        "MixedPineSav_18_NGFP": null,
        "GrazLandswCP_EstAcres": null,
        "GrazLandswCP_1_MMNWVC": null,
        "GrazLandswCP_2_NWVC": null,
        "GrazLandswCP_4_MH": null,
        "GrazLandswCP_5_TT": null,
        "GrazLandswCP_8_BMM": null,
        "GrazLandswCP_9_PB": null,
        "GrazLandswCP_13_TPB": null,
        "GrazLandswCP_18_NGFP": null,
        "CroplandwCP_EstAcres": null,
        "CroplandwCP_1_MMNWVC": null,
        "CroplandwCP_2_NWVC": null,
        "CroplandwCP_4_MH": null,
        "CroplandwCP_5_TT": null,
        "CroplandwCP_8_BMM": null,
        "CroplandwCP_9_PB": null,
        "CroplandwCP_13_TPB": null,
        "CroplandwCP_18_NGFP": null,
        "Calculation_ANCHOR_ACRES_TOTAL": 72,
        "ANCHOR_Ownership": "private",
        "ANCHOR_OwnershipConfidence": "medium"
      },
      "geometry": {
        "type": "Point",
        "coordinates": [
          -87.24716731194759,
          36.096496995653595
        ]
      }
    },
    {
      "type": "Feature",
      "properties": {
        "ANCHOR_SiteName": "Morgan Farm",
        "NatGrass_EstAcres": 125,
        "NatGrass_1_MMNWVC": 0,
        "NatGrass_2_NWVC": 125,
        "NatGrass_4_MH": 42,
        "NatGrass_5_TT": 80,
        "NatGrass_8_BMM": 10,
        "NatGrass_9_PB": 125,
        "NatGrass_13_TPB": 0,
        "NatGrass_18_NGFP": 10,
        "PollHabMilkweed_EstAcres": null,
        "PollHabMilkweed_1_MMNWVC": null,
        "PollHabMilkweed_2_NWVC": null,
        "PollHabMilkweed_4_MH": null,
        "PollHabMilkweed_5_TT": null,
        "PollHabMilkweed_8_BMM": null,
        "PollHabMilkweed_9_PB": null,
        "PollHabMilkweed_13_TPB": null,
        "PollHabMilkweed_18_NGFP": null,
        "PollHabNectPlants_EstAcres": null,
        "PollHabNectPlants_1_MMNWVC": null,
        "PollHabNectPlants_2_NWVC": null,
        "PollHabNectPlants_4_MH": null,
        "PollHabNectPlants_5_TT": null,
        "PollHabNectPlants_8_BMM": null,
        "PollHabNectPlants_9_PB": null,
        "PollHabNectPlants_13_TPB": null,
        "PollHabNectPlants_18_NGFP": null,
        "NatLongSav_EstAcres": null,
        "NatLongSav_1_MMNWVC": null,
        "NatLongSav_2_NWVC": null,
        "NatLongSav_4_MH": null,
        "NatLongSav_5_TT": null,
        "NatLongSav_8_BMM": null,
        "NatLongSav_9_PB": null,
        "NatLongSav_13_TPB": null,
        "NatLongSav_18_NGFP": null,
        "MixedPineSav_EstAcres": 80,
        "MixedPineSav_1_MMNWVC": 0,
        "MixedPineSav_2_NWVC": 80,
        "MixedPineSav_4_MH": 0,
        "MixedPineSav_5_TT": 80,
        "MixedPineSav_8_BMM": 0,
        "MixedPineSav_9_PB": 80,
        "MixedPineSav_12_TPB": 0,
        "MixedPineSav_18_NGFP": 0,
        "GrazLandswCP_EstAcres": null,
        "GrazLandswCP_1_MMNWVC": null,
        "GrazLandswCP_2_NWVC": null,
        "GrazLandswCP_4_MH": null,
        "GrazLandswCP_5_TT": null,
        "GrazLandswCP_8_BMM": null,
        "GrazLandswCP_9_PB": null,
        "GrazLandswCP_13_TPB": null,
        "GrazLandswCP_18_NGFP": null,
        "CroplandwCP_EstAcres": null,
        "CroplandwCP_1_MMNWVC": null,
        "CroplandwCP_2_NWVC": null,
        "CroplandwCP_4_MH": null,
        "CroplandwCP_5_TT": null,
        "CroplandwCP_8_BMM": null,
        "CroplandwCP_9_PB": null,
        "CroplandwCP_13_TPB": null,
        "CroplandwCP_18_NGFP": null,
        "Calculation_ANCHOR_ACRES_TOTAL": 186,
        "ANCHOR_Ownership": "private",
        "ANCHOR_OwnershipConfidence": "medium"
      },
      "geometry": {
        "type": "Point",
        "coordinates": [
          -87.25016234030609,
          36.08766943608948
        ]
      }
    },
    {
      "type": "Feature",
      "properties": {
        "ANCHOR_SiteName": "Best Hope Farm",
        "NatGrass_EstAcres": 30,
        "NatGrass_1_MMNWVC": 20,
        "NatGrass_2_NWVC": 62,
        "NatGrass_4_MH": 0,
        "NatGrass_5_TT": 10,
        "NatGrass_8_BMM": 0,
        "NatGrass_9_PB": 40,
        "NatGrass_13_TPB": 0,
        "NatGrass_18_NGFP": 0,
        "PollHabMilkweed_EstAcres": null,
        "PollHabMilkweed_1_MMNWVC": null,
        "PollHabMilkweed_2_NWVC": null,
        "PollHabMilkweed_4_MH": null,
        "PollHabMilkweed_5_TT": null,
        "PollHabMilkweed_8_BMM": null,
        "PollHabMilkweed_9_PB": null,
        "PollHabMilkweed_13_TPB": null,
        "PollHabMilkweed_18_NGFP": null,
        "PollHabNectPlants_EstAcres": null,
        "PollHabNectPlants_1_MMNWVC": null,
        "PollHabNectPlants_2_NWVC": null,
        "PollHabNectPlants_4_MH": null,
        "PollHabNectPlants_5_TT": null,
        "PollHabNectPlants_8_BMM": null,
        "PollHabNectPlants_9_PB": null,
        "PollHabNectPlants_13_TPB": null,
        "PollHabNectPlants_18_NGFP": null,
        "NatLongSav_EstAcres": null,
        "NatLongSav_1_MMNWVC": null,
        "NatLongSav_2_NWVC": null,
        "NatLongSav_4_MH": null,
        "NatLongSav_5_TT": null,
        "NatLongSav_8_BMM": null,
        "NatLongSav_9_PB": null,
        "NatLongSav_13_TPB": null,
        "NatLongSav_18_NGFP": null,
        "MixedPineSav_EstAcres": null,
        "MixedPineSav_1_MMNWVC": null,
        "MixedPineSav_2_NWVC": null,
        "MixedPineSav_4_MH": null,
        "MixedPineSav_5_TT": null,
        "MixedPineSav_8_BMM": null,
        "MixedPineSav_9_PB": null,
        "MixedPineSav_12_TPB": null,
        "MixedPineSav_18_NGFP": null,
        "GrazLandswCP_EstAcres": null,
        "GrazLandswCP_1_MMNWVC": null,
        "GrazLandswCP_2_NWVC": null,
        "GrazLandswCP_4_MH": null,
        "GrazLandswCP_5_TT": null,
        "GrazLandswCP_8_BMM": null,
        "GrazLandswCP_9_PB": null,
        "GrazLandswCP_13_TPB": null,
        "GrazLandswCP_18_NGFP": null,
        "CroplandwCP_EstAcres": null,
        "CroplandwCP_1_MMNWVC": null,
        "CroplandwCP_2_NWVC": null,
        "CroplandwCP_4_MH": null,
        "CroplandwCP_5_TT": null,
        "CroplandwCP_8_BMM": null,
        "CroplandwCP_9_PB": null,
        "CroplandwCP_13_TPB": null,
        "CroplandwCP_18_NGFP": null,
        "Calculation_ANCHOR_ACRES_TOTAL": 68,
        "ANCHOR_Ownership": "private",
        "ANCHOR_OwnershipConfidence": "medium"
      },
      "geometry": {
        "type": "Point",
        "coordinates": [
          -87.25517847650252,
          36.07966044701234
        ]
      }
    },
    {
      "type": "Feature",
      "properties": {
        "ANCHOR_SiteName": "Kansas Hills",
        "NatGrass_EstAcres": 350,
        "NatGrass_1_MMNWVC": 0,
        "NatGrass_2_NWVC": 0,
        "NatGrass_4_MH": 350,
        "NatGrass_5_TT": 0,
        "NatGrass_8_BMM": 0,
        "NatGrass_9_PB": 350,
        "NatGrass_13_TPB": 0,
        "NatGrass_18_NGFP": 350,
        "PollHabMilkweed_EstAcres": null,
        "PollHabMilkweed_1_MMNWVC": null,
        "PollHabMilkweed_2_NWVC": null,
        "PollHabMilkweed_4_MH": null,
        "PollHabMilkweed_5_TT": null,
        "PollHabMilkweed_8_BMM": null,
        "PollHabMilkweed_9_PB": null,
        "PollHabMilkweed_13_TPB": null,
        "PollHabMilkweed_18_NGFP": null,
        "PollHabNectPlants_EstAcres": null,
        "PollHabNectPlants_1_MMNWVC": null,
        "PollHabNectPlants_2_NWVC": null,
        "PollHabNectPlants_4_MH": null,
        "PollHabNectPlants_5_TT": null,
        "PollHabNectPlants_8_BMM": null,
        "PollHabNectPlants_9_PB": null,
        "PollHabNectPlants_13_TPB": null,
        "PollHabNectPlants_18_NGFP": null,
        "NatLongSav_EstAcres": null,
        "NatLongSav_1_MMNWVC": null,
        "NatLongSav_2_NWVC": null,
        "NatLongSav_4_MH": null,
        "NatLongSav_5_TT": null,
        "NatLongSav_8_BMM": null,
        "NatLongSav_9_PB": null,
        "NatLongSav_13_TPB": null,
        "NatLongSav_18_NGFP": null,
        "MixedPineSav_EstAcres": null,
        "MixedPineSav_1_MMNWVC": null,
        "MixedPineSav_2_NWVC": null,
        "MixedPineSav_4_MH": null,
        "MixedPineSav_5_TT": null,
        "MixedPineSav_8_BMM": null,
        "MixedPineSav_9_PB": null,
        "MixedPineSav_12_TPB": null,
        "MixedPineSav_18_NGFP": null,
        "GrazLandswCP_EstAcres": null,
        "GrazLandswCP_1_MMNWVC": null,
        "GrazLandswCP_2_NWVC": null,
        "GrazLandswCP_4_MH": null,
        "GrazLandswCP_5_TT": null,
        "GrazLandswCP_8_BMM": null,
        "GrazLandswCP_9_PB": null,
        "GrazLandswCP_13_TPB": null,
        "GrazLandswCP_18_NGFP": null,
        "CroplandwCP_EstAcres": null,
        "CroplandwCP_1_MMNWVC": null,
        "CroplandwCP_2_NWVC": null,
        "CroplandwCP_4_MH": null,
        "CroplandwCP_5_TT": null,
        "CroplandwCP_8_BMM": null,
        "CroplandwCP_9_PB": null,
        "CroplandwCP_13_TPB": null,
        "CroplandwCP_18_NGFP": null,
        "Calculation_ANCHOR_ACRES_TOTAL": 371,
        "ANCHOR_Ownership": "private",
        "ANCHOR_OwnershipConfidence": "low"
      },
      "geometry": {
        "type": "Point",
        "coordinates": [
          -87.01914598587697,
          36.51398644095257
        ]
      }
    },
    {
      "type": "Feature",
      "properties": {
        "ANCHOR_SiteName": "Van Hook Savanna",
        "NatGrass_EstAcres": 230,
        "NatGrass_1_MMNWVC": 0,
        "NatGrass_2_NWVC": 230,
        "NatGrass_4_MH": 200,
        "NatGrass_5_TT": 30,
        "NatGrass_8_BMM": 0,
        "NatGrass_9_PB": 230,
        "NatGrass_13_TPB": 0,
        "NatGrass_18_NGFP": 100,
        "PollHabMilkweed_EstAcres": null,
        "PollHabMilkweed_1_MMNWVC": null,
        "PollHabMilkweed_2_NWVC": null,
        "PollHabMilkweed_4_MH": null,
        "PollHabMilkweed_5_TT": null,
        "PollHabMilkweed_8_BMM": null,
        "PollHabMilkweed_9_PB": null,
        "PollHabMilkweed_13_TPB": null,
        "PollHabMilkweed_18_NGFP": null,
        "PollHabNectPlants_EstAcres": null,
        "PollHabNectPlants_1_MMNWVC": null,
        "PollHabNectPlants_2_NWVC": null,
        "PollHabNectPlants_4_MH": null,
        "PollHabNectPlants_5_TT": null,
        "PollHabNectPlants_8_BMM": null,
        "PollHabNectPlants_9_PB": null,
        "PollHabNectPlants_13_TPB": null,
        "PollHabNectPlants_18_NGFP": null,
        "NatLongSav_EstAcres": null,
        "NatLongSav_1_MMNWVC": null,
        "NatLongSav_2_NWVC": null,
        "NatLongSav_4_MH": null,
        "NatLongSav_5_TT": null,
        "NatLongSav_8_BMM": null,
        "NatLongSav_9_PB": null,
        "NatLongSav_13_TPB": null,
        "NatLongSav_18_NGFP": null,
        "MixedPineSav_EstAcres": null,
        "MixedPineSav_1_MMNWVC": null,
        "MixedPineSav_2_NWVC": null,
        "MixedPineSav_4_MH": null,
        "MixedPineSav_5_TT": null,
        "MixedPineSav_8_BMM": null,
        "MixedPineSav_9_PB": null,
        "MixedPineSav_12_TPB": null,
        "MixedPineSav_18_NGFP": null,
        "GrazLandswCP_EstAcres": null,
        "GrazLandswCP_1_MMNWVC": null,
        "GrazLandswCP_2_NWVC": null,
        "GrazLandswCP_4_MH": null,
        "GrazLandswCP_5_TT": null,
        "GrazLandswCP_8_BMM": null,
        "GrazLandswCP_9_PB": null,
        "GrazLandswCP_13_TPB": null,
        "GrazLandswCP_18_NGFP": null,
        "CroplandwCP_EstAcres": null,
        "CroplandwCP_1_MMNWVC": null,
        "CroplandwCP_2_NWVC": null,
        "CroplandwCP_4_MH": null,
        "CroplandwCP_5_TT": null,
        "CroplandwCP_8_BMM": null,
        "CroplandwCP_9_PB": null,
        "CroplandwCP_13_TPB": null,
        "CroplandwCP_18_NGFP": null,
        "Calculation_ANCHOR_ACRES_TOTAL": 230,
        "ANCHOR_Ownership": "private",
        "ANCHOR_OwnershipConfidence": "low"
      },
      "geometry": {
        "type": "Point",
        "coordinates": [
          -87.09340571218185,
          36.49468081620836
        ]
      }
    },
    {
      "type": "Feature",
      "properties": {
        "ANCHOR_SiteName": "Lytle Bend Meadow",
        "NatGrass_EstAcres": 400,
        "NatGrass_1_MMNWVC": 0,
        "NatGrass_2_NWVC": 400,
        "NatGrass_4_MH": 300,
        "NatGrass_5_TT": 0,
        "NatGrass_8_BMM": 0,
        "NatGrass_9_PB": 0,
        "NatGrass_13_TPB": 0,
        "NatGrass_18_NGFP": 100,
        "PollHabMilkweed_EstAcres": null,
        "PollHabMilkweed_1_MMNWVC": null,
        "PollHabMilkweed_2_NWVC": null,
        "PollHabMilkweed_4_MH": null,
        "PollHabMilkweed_5_TT": null,
        "PollHabMilkweed_8_BMM": null,
        "PollHabMilkweed_9_PB": null,
        "PollHabMilkweed_13_TPB": null,
        "PollHabMilkweed_18_NGFP": null,
        "PollHabNectPlants_EstAcres": null,
        "PollHabNectPlants_1_MMNWVC": null,
        "PollHabNectPlants_2_NWVC": null,
        "PollHabNectPlants_4_MH": null,
        "PollHabNectPlants_5_TT": null,
        "PollHabNectPlants_8_BMM": null,
        "PollHabNectPlants_9_PB": null,
        "PollHabNectPlants_13_TPB": null,
        "PollHabNectPlants_18_NGFP": null,
        "NatLongSav_EstAcres": null,
        "NatLongSav_1_MMNWVC": null,
        "NatLongSav_2_NWVC": null,
        "NatLongSav_4_MH": null,
        "NatLongSav_5_TT": null,
        "NatLongSav_8_BMM": null,
        "NatLongSav_9_PB": null,
        "NatLongSav_13_TPB": null,
        "NatLongSav_18_NGFP": null,
        "MixedPineSav_EstAcres": null,
        "MixedPineSav_1_MMNWVC": null,
        "MixedPineSav_2_NWVC": null,
        "MixedPineSav_4_MH": null,
        "MixedPineSav_5_TT": null,
        "MixedPineSav_8_BMM": null,
        "MixedPineSav_9_PB": null,
        "MixedPineSav_12_TPB": null,
        "MixedPineSav_18_NGFP": null,
        "GrazLandswCP_EstAcres": null,
        "GrazLandswCP_1_MMNWVC": null,
        "GrazLandswCP_2_NWVC": null,
        "GrazLandswCP_4_MH": null,
        "GrazLandswCP_5_TT": null,
        "GrazLandswCP_8_BMM": null,
        "GrazLandswCP_9_PB": null,
        "GrazLandswCP_13_TPB": null,
        "GrazLandswCP_18_NGFP": null,
        "CroplandwCP_EstAcres": null,
        "CroplandwCP_1_MMNWVC": null,
        "CroplandwCP_2_NWVC": null,
        "CroplandwCP_4_MH": null,
        "CroplandwCP_5_TT": null,
        "CroplandwCP_8_BMM": null,
        "CroplandwCP_9_PB": null,
        "CroplandwCP_13_TPB": null,
        "CroplandwCP_18_NGFP": null,
        "Calculation_ANCHOR_ACRES_TOTAL": 555,
        "ANCHOR_Ownership": "public",
        "ANCHOR_OwnershipConfidence": "low"
      },
      "geometry": {
        "type": "Point",
        "coordinates": [
          -86.65903037990081,
          36.18275085307256
        ]
      }
    },
    {
      "type": "Feature",
      "properties": {
        "ANCHOR_SiteName": "Old Town Meadow",
        "NatGrass_EstAcres": 5,
        "NatGrass_1_MMNWVC": 0,
        "NatGrass_2_NWVC": 0,
        "NatGrass_4_MH": 0,
        "NatGrass_5_TT": 5,
        "NatGrass_8_BMM": 0,
        "NatGrass_9_PB": 5,
        "NatGrass_13_TPB": 0,
        "NatGrass_18_NGFP": 2.5,
        "PollHabMilkweed_EstAcres": null,
        "PollHabMilkweed_1_MMNWVC": null,
        "PollHabMilkweed_2_NWVC": null,
        "PollHabMilkweed_4_MH": null,
        "PollHabMilkweed_5_TT": null,
        "PollHabMilkweed_8_BMM": null,
        "PollHabMilkweed_9_PB": null,
        "PollHabMilkweed_13_TPB": null,
        "PollHabMilkweed_18_NGFP": null,
        "PollHabNectPlants_EstAcres": null,
        "PollHabNectPlants_1_MMNWVC": null,
        "PollHabNectPlants_2_NWVC": null,
        "PollHabNectPlants_4_MH": null,
        "PollHabNectPlants_5_TT": null,
        "PollHabNectPlants_8_BMM": null,
        "PollHabNectPlants_9_PB": null,
        "PollHabNectPlants_13_TPB": null,
        "PollHabNectPlants_18_NGFP": null,
        "NatLongSav_EstAcres": null,
        "NatLongSav_1_MMNWVC": null,
        "NatLongSav_2_NWVC": null,
        "NatLongSav_4_MH": null,
        "NatLongSav_5_TT": null,
        "NatLongSav_8_BMM": null,
        "NatLongSav_9_PB": null,
        "NatLongSav_13_TPB": null,
        "NatLongSav_18_NGFP": null,
        "MixedPineSav_EstAcres": null,
        "MixedPineSav_1_MMNWVC": null,
        "MixedPineSav_2_NWVC": null,
        "MixedPineSav_4_MH": null,
        "MixedPineSav_5_TT": null,
        "MixedPineSav_8_BMM": null,
        "MixedPineSav_9_PB": null,
        "MixedPineSav_12_TPB": null,
        "MixedPineSav_18_NGFP": null,
        "GrazLandswCP_EstAcres": null,
        "GrazLandswCP_1_MMNWVC": null,
        "GrazLandswCP_2_NWVC": null,
        "GrazLandswCP_4_MH": null,
        "GrazLandswCP_5_TT": null,
        "GrazLandswCP_8_BMM": null,
        "GrazLandswCP_9_PB": null,
        "GrazLandswCP_13_TPB": null,
        "GrazLandswCP_18_NGFP": null,
        "CroplandwCP_EstAcres": null,
        "CroplandwCP_1_MMNWVC": null,
        "CroplandwCP_2_NWVC": null,
        "CroplandwCP_4_MH": null,
        "CroplandwCP_5_TT": null,
        "CroplandwCP_8_BMM": null,
        "CroplandwCP_9_PB": null,
        "CroplandwCP_13_TPB": null,
        "CroplandwCP_18_NGFP": null,
        "Calculation_ANCHOR_ACRES_TOTAL": 7,
        "ANCHOR_Ownership": "private",
        "ANCHOR_OwnershipConfidence": "low"
      },
      "geometry": {
        "type": "Point",
        "coordinates": [
          -86.94025353908201,
          35.99225040222084
        ]
      }
    },
    {
      "type": "Feature",
      "properties": {
        "ANCHOR_SiteName": "Bask",
        "NatGrass_EstAcres": 30,
        "NatGrass_1_MMNWVC": 0,
        "NatGrass_2_NWVC": 20,
        "NatGrass_4_MH": 20,
        "NatGrass_5_TT": 15,
        "NatGrass_8_BMM": 0,
        "NatGrass_9_PB": 30,
        "NatGrass_13_TPB": 0,
        "NatGrass_18_NGFP": 1,
        "PollHabMilkweed_EstAcres": null,
        "PollHabMilkweed_1_MMNWVC": null,
        "PollHabMilkweed_2_NWVC": null,
        "PollHabMilkweed_4_MH": null,
        "PollHabMilkweed_5_TT": null,
        "PollHabMilkweed_8_BMM": null,
        "PollHabMilkweed_9_PB": null,
        "PollHabMilkweed_13_TPB": null,
        "PollHabMilkweed_18_NGFP": null,
        "PollHabNectPlants_EstAcres": null,
        "PollHabNectPlants_1_MMNWVC": null,
        "PollHabNectPlants_2_NWVC": null,
        "PollHabNectPlants_4_MH": null,
        "PollHabNectPlants_5_TT": null,
        "PollHabNectPlants_8_BMM": null,
        "PollHabNectPlants_9_PB": null,
        "PollHabNectPlants_13_TPB": null,
        "PollHabNectPlants_18_NGFP": null,
        "NatLongSav_EstAcres": null,
        "NatLongSav_1_MMNWVC": null,
        "NatLongSav_2_NWVC": null,
        "NatLongSav_4_MH": null,
        "NatLongSav_5_TT": null,
        "NatLongSav_8_BMM": null,
        "NatLongSav_9_PB": null,
        "NatLongSav_13_TPB": null,
        "NatLongSav_18_NGFP": null,
        "MixedPineSav_EstAcres": null,
        "MixedPineSav_1_MMNWVC": null,
        "MixedPineSav_2_NWVC": null,
        "MixedPineSav_4_MH": null,
        "MixedPineSav_5_TT": null,
        "MixedPineSav_8_BMM": null,
        "MixedPineSav_9_PB": null,
        "MixedPineSav_12_TPB": null,
        "MixedPineSav_18_NGFP": null,
        "GrazLandswCP_EstAcres": null,
        "GrazLandswCP_1_MMNWVC": null,
        "GrazLandswCP_2_NWVC": null,
        "GrazLandswCP_4_MH": null,
        "GrazLandswCP_5_TT": null,
        "GrazLandswCP_8_BMM": null,
        "GrazLandswCP_9_PB": null,
        "GrazLandswCP_13_TPB": null,
        "GrazLandswCP_18_NGFP": null,
        "CroplandwCP_EstAcres": null,
        "CroplandwCP_1_MMNWVC": null,
        "CroplandwCP_2_NWVC": null,
        "CroplandwCP_4_MH": null,
        "CroplandwCP_5_TT": null,
        "CroplandwCP_8_BMM": null,
        "CroplandwCP_9_PB": null,
        "CroplandwCP_13_TPB": null,
        "CroplandwCP_18_NGFP": null,
        "Calculation_ANCHOR_ACRES_TOTAL": 38,
        "ANCHOR_Ownership": "private",
        "ANCHOR_OwnershipConfidence": "low"
      },
      "geometry": {
        "type": "Point",
        "coordinates": [
          -87.5283659437375,
          35.71094007938504
        ]
      }
    },
    {
      "type": "Feature",
      "properties": {
        "ANCHOR_SiteName": "Lambrecht",
        "NatGrass_EstAcres": 37,
        "NatGrass_1_MMNWVC": 0,
        "NatGrass_2_NWVC": 20,
        "NatGrass_4_MH": 10,
        "NatGrass_5_TT": 10,
        "NatGrass_8_BMM": 0,
        "NatGrass_9_PB": 37,
        "NatGrass_13_TPB": 0,
        "NatGrass_18_NGFP": 0,
        "PollHabMilkweed_EstAcres": null,
        "PollHabMilkweed_1_MMNWVC": null,
        "PollHabMilkweed_2_NWVC": null,
        "PollHabMilkweed_4_MH": null,
        "PollHabMilkweed_5_TT": null,
        "PollHabMilkweed_8_BMM": null,
        "PollHabMilkweed_9_PB": null,
        "PollHabMilkweed_13_TPB": null,
        "PollHabMilkweed_18_NGFP": null,
        "PollHabNectPlants_EstAcres": null,
        "PollHabNectPlants_1_MMNWVC": null,
        "PollHabNectPlants_2_NWVC": null,
        "PollHabNectPlants_4_MH": null,
        "PollHabNectPlants_5_TT": null,
        "PollHabNectPlants_8_BMM": null,
        "PollHabNectPlants_9_PB": null,
        "PollHabNectPlants_13_TPB": null,
        "PollHabNectPlants_18_NGFP": null,
        "NatLongSav_EstAcres": null,
        "NatLongSav_1_MMNWVC": null,
        "NatLongSav_2_NWVC": null,
        "NatLongSav_4_MH": null,
        "NatLongSav_5_TT": null,
        "NatLongSav_8_BMM": null,
        "NatLongSav_9_PB": null,
        "NatLongSav_13_TPB": null,
        "NatLongSav_18_NGFP": null,
        "MixedPineSav_EstAcres": null,
        "MixedPineSav_1_MMNWVC": null,
        "MixedPineSav_2_NWVC": null,
        "MixedPineSav_4_MH": null,
        "MixedPineSav_5_TT": null,
        "MixedPineSav_8_BMM": null,
        "MixedPineSav_9_PB": null,
        "MixedPineSav_12_TPB": null,
        "MixedPineSav_18_NGFP": null,
        "GrazLandswCP_EstAcres": null,
        "GrazLandswCP_1_MMNWVC": null,
        "GrazLandswCP_2_NWVC": null,
        "GrazLandswCP_4_MH": null,
        "GrazLandswCP_5_TT": null,
        "GrazLandswCP_8_BMM": null,
        "GrazLandswCP_9_PB": null,
        "GrazLandswCP_13_TPB": null,
        "GrazLandswCP_18_NGFP": null,
        "CroplandwCP_EstAcres": null,
        "CroplandwCP_1_MMNWVC": null,
        "CroplandwCP_2_NWVC": null,
        "CroplandwCP_4_MH": null,
        "CroplandwCP_5_TT": null,
        "CroplandwCP_8_BMM": null,
        "CroplandwCP_9_PB": null,
        "CroplandwCP_13_TPB": null,
        "CroplandwCP_18_NGFP": null,
        "Calculation_ANCHOR_ACRES_TOTAL": 37,
        "ANCHOR_Ownership": "private",
        "ANCHOR_OwnershipConfidence": "medium"
      },
      "geometry": {
        "type": "Point",
        "coordinates": [
          -86.24989472107279,
          36.255891486769656
        ]
      }
    },
    {
      "type": "Feature",
      "properties": {
        "ANCHOR_SiteName": "Eagleville Wet Prairie",
        "NatGrass_EstAcres": 0,
        "NatGrass_1_MMNWVC": null,
        "NatGrass_2_NWVC": null,
        "NatGrass_4_MH": null,
        "NatGrass_5_TT": null,
        "NatGrass_8_BMM": null,
        "NatGrass_9_PB": null,
        "NatGrass_13_TPB": null,
        "NatGrass_18_NGFP": null,
        "PollHabMilkweed_EstAcres": 0,
        "PollHabMilkweed_1_MMNWVC": null,
        "PollHabMilkweed_2_NWVC": null,
        "PollHabMilkweed_4_MH": null,
        "PollHabMilkweed_5_TT": null,
        "PollHabMilkweed_8_BMM": null,
        "PollHabMilkweed_9_PB": null,
        "PollHabMilkweed_13_TPB": null,
        "PollHabMilkweed_18_NGFP": null,
        "PollHabNectPlants_EstAcres": 0,
        "PollHabNectPlants_1_MMNWVC": null,
        "PollHabNectPlants_2_NWVC": null,
        "PollHabNectPlants_4_MH": null,
        "PollHabNectPlants_5_TT": null,
        "PollHabNectPlants_8_BMM": null,
        "PollHabNectPlants_9_PB": null,
        "PollHabNectPlants_13_TPB": null,
        "PollHabNectPlants_18_NGFP": null,
        "NatLongSav_EstAcres": null,
        "NatLongSav_1_MMNWVC": null,
        "NatLongSav_2_NWVC": null,
        "NatLongSav_4_MH": null,
        "NatLongSav_5_TT": null,
        "NatLongSav_8_BMM": null,
        "NatLongSav_9_PB": null,
        "NatLongSav_13_TPB": null,
        "NatLongSav_18_NGFP": null,
        "MixedPineSav_EstAcres": null,
        "MixedPineSav_1_MMNWVC": null,
        "MixedPineSav_2_NWVC": null,
        "MixedPineSav_4_MH": null,
        "MixedPineSav_5_TT": null,
        "MixedPineSav_8_BMM": null,
        "MixedPineSav_9_PB": null,
        "MixedPineSav_12_TPB": null,
        "MixedPineSav_18_NGFP": null,
        "GrazLandswCP_EstAcres": null,
        "GrazLandswCP_1_MMNWVC": null,
        "GrazLandswCP_2_NWVC": null,
        "GrazLandswCP_4_MH": null,
        "GrazLandswCP_5_TT": null,
        "GrazLandswCP_8_BMM": null,
        "GrazLandswCP_9_PB": null,
        "GrazLandswCP_13_TPB": null,
        "GrazLandswCP_18_NGFP": null,
        "CroplandwCP_EstAcres": null,
        "CroplandwCP_1_MMNWVC": null,
        "CroplandwCP_2_NWVC": null,
        "CroplandwCP_4_MH": null,
        "CroplandwCP_5_TT": null,
        "CroplandwCP_8_BMM": null,
        "CroplandwCP_9_PB": null,
        "CroplandwCP_13_TPB": null,
        "CroplandwCP_18_NGFP": null,
        "Calculation_ANCHOR_ACRES_TOTAL": 89,
        "ANCHOR_Ownership": "non-profit",
        "ANCHOR_OwnershipConfidence": "low"
      },
      "geometry": {
        "type": "Point",
        "coordinates": [
          -86.5921440658315,
          35.75240650570799
        ]
      }
    },
    {
      "type": "Feature",
      "properties": {
        "ANCHOR_SiteName": "Penn Prairie",
        "NatGrass_EstAcres": 0,
        "NatGrass_1_MMNWVC": null,
        "NatGrass_2_NWVC": null,
        "NatGrass_4_MH": null,
        "NatGrass_5_TT": null,
        "NatGrass_8_BMM": null,
        "NatGrass_9_PB": null,
        "NatGrass_13_TPB": null,
        "NatGrass_18_NGFP": null,
        "PollHabMilkweed_EstAcres": 0,
        "PollHabMilkweed_1_MMNWVC": null,
        "PollHabMilkweed_2_NWVC": null,
        "PollHabMilkweed_4_MH": null,
        "PollHabMilkweed_5_TT": null,
        "PollHabMilkweed_8_BMM": null,
        "PollHabMilkweed_9_PB": null,
        "PollHabMilkweed_13_TPB": null,
        "PollHabMilkweed_18_NGFP": null,
        "PollHabNectPlants_EstAcres": 0,
        "PollHabNectPlants_1_MMNWVC": null,
        "PollHabNectPlants_2_NWVC": null,
        "PollHabNectPlants_4_MH": null,
        "PollHabNectPlants_5_TT": null,
        "PollHabNectPlants_8_BMM": null,
        "PollHabNectPlants_9_PB": null,
        "PollHabNectPlants_13_TPB": null,
        "PollHabNectPlants_18_NGFP": null,
        "NatLongSav_EstAcres": null,
        "NatLongSav_1_MMNWVC": null,
        "NatLongSav_2_NWVC": null,
        "NatLongSav_4_MH": null,
        "NatLongSav_5_TT": null,
        "NatLongSav_8_BMM": null,
        "NatLongSav_9_PB": null,
        "NatLongSav_13_TPB": null,
        "NatLongSav_18_NGFP": null,
        "MixedPineSav_EstAcres": null,
        "MixedPineSav_1_MMNWVC": null,
        "MixedPineSav_2_NWVC": null,
        "MixedPineSav_4_MH": null,
        "MixedPineSav_5_TT": null,
        "MixedPineSav_8_BMM": null,
        "MixedPineSav_9_PB": null,
        "MixedPineSav_12_TPB": null,
        "MixedPineSav_18_NGFP": null,
        "GrazLandswCP_EstAcres": null,
        "GrazLandswCP_1_MMNWVC": null,
        "GrazLandswCP_2_NWVC": null,
        "GrazLandswCP_4_MH": null,
        "GrazLandswCP_5_TT": null,
        "GrazLandswCP_8_BMM": null,
        "GrazLandswCP_9_PB": null,
        "GrazLandswCP_13_TPB": null,
        "GrazLandswCP_18_NGFP": null,
        "CroplandwCP_EstAcres": null,
        "CroplandwCP_1_MMNWVC": null,
        "CroplandwCP_2_NWVC": null,
        "CroplandwCP_4_MH": null,
        "CroplandwCP_5_TT": null,
        "CroplandwCP_8_BMM": null,
        "CroplandwCP_9_PB": null,
        "CroplandwCP_13_TPB": null,
        "CroplandwCP_18_NGFP": null,
        "Calculation_ANCHOR_ACRES_TOTAL": 9,
        "ANCHOR_Ownership": "non-profit",
        "ANCHOR_OwnershipConfidence": "medium"
      },
      "geometry": {
        "type": "Point",
        "coordinates": [
          -92.64846852427553,
          41.31177374156608
        ]
      }
    },
    {
      "type": "Feature",
      "properties": {
        "ANCHOR_SiteName": "Eyheralde Savanna",
        "NatGrass_EstAcres": 0,
        "NatGrass_1_MMNWVC": null,
        "NatGrass_2_NWVC": null,
        "NatGrass_4_MH": null,
        "NatGrass_5_TT": null,
        "NatGrass_8_BMM": null,
        "NatGrass_9_PB": null,
        "NatGrass_13_TPB": null,
        "NatGrass_18_NGFP": null,
        "PollHabMilkweed_EstAcres": null,
        "PollHabMilkweed_1_MMNWVC": null,
        "PollHabMilkweed_2_NWVC": null,
        "PollHabMilkweed_4_MH": null,
        "PollHabMilkweed_5_TT": null,
        "PollHabMilkweed_8_BMM": null,
        "PollHabMilkweed_9_PB": null,
        "PollHabMilkweed_13_TPB": null,
        "PollHabMilkweed_18_NGFP": null,
        "PollHabNectPlants_EstAcres": 0,
        "PollHabNectPlants_1_MMNWVC": null,
        "PollHabNectPlants_2_NWVC": null,
        "PollHabNectPlants_4_MH": null,
        "PollHabNectPlants_5_TT": null,
        "PollHabNectPlants_8_BMM": null,
        "PollHabNectPlants_9_PB": null,
        "PollHabNectPlants_13_TPB": null,
        "PollHabNectPlants_18_NGFP": null,
        "NatLongSav_EstAcres": null,
        "NatLongSav_1_MMNWVC": null,
        "NatLongSav_2_NWVC": null,
        "NatLongSav_4_MH": null,
        "NatLongSav_5_TT": null,
        "NatLongSav_8_BMM": null,
        "NatLongSav_9_PB": null,
        "NatLongSav_13_TPB": null,
        "NatLongSav_18_NGFP": null,
        "MixedPineSav_EstAcres": null,
        "MixedPineSav_1_MMNWVC": null,
        "MixedPineSav_2_NWVC": null,
        "MixedPineSav_4_MH": null,
        "MixedPineSav_5_TT": null,
        "MixedPineSav_8_BMM": null,
        "MixedPineSav_9_PB": null,
        "MixedPineSav_12_TPB": null,
        "MixedPineSav_18_NGFP": null,
        "GrazLandswCP_EstAcres": null,
        "GrazLandswCP_1_MMNWVC": null,
        "GrazLandswCP_2_NWVC": null,
        "GrazLandswCP_4_MH": null,
        "GrazLandswCP_5_TT": null,
        "GrazLandswCP_8_BMM": null,
        "GrazLandswCP_9_PB": null,
        "GrazLandswCP_13_TPB": null,
        "GrazLandswCP_18_NGFP": null,
        "CroplandwCP_EstAcres": null,
        "CroplandwCP_1_MMNWVC": null,
        "CroplandwCP_2_NWVC": null,
        "CroplandwCP_4_MH": null,
        "CroplandwCP_5_TT": null,
        "CroplandwCP_8_BMM": null,
        "CroplandwCP_9_PB": null,
        "CroplandwCP_13_TPB": null,
        "CroplandwCP_18_NGFP": null,
        "Calculation_ANCHOR_ACRES_TOTAL": 19,
        "ANCHOR_Ownership": "private",
        "ANCHOR_OwnershipConfidence": "medium"
      },
      "geometry": {
        "type": "Point",
        "coordinates": [
          -93.28146916399386,
          41.034686649290805
        ]
      }
    },
    {
      "type": "Feature",
      "properties": {
        "ANCHOR_SiteName": "Arnold Prairie",
        "NatGrass_EstAcres": 0,
        "NatGrass_1_MMNWVC": null,
        "NatGrass_2_NWVC": null,
        "NatGrass_4_MH": null,
        "NatGrass_5_TT": null,
        "NatGrass_8_BMM": null,
        "NatGrass_9_PB": null,
        "NatGrass_13_TPB": null,
        "NatGrass_18_NGFP": null,
        "PollHabMilkweed_EstAcres": 0,
        "PollHabMilkweed_1_MMNWVC": null,
        "PollHabMilkweed_2_NWVC": null,
        "PollHabMilkweed_4_MH": null,
        "PollHabMilkweed_5_TT": null,
        "PollHabMilkweed_8_BMM": null,
        "PollHabMilkweed_9_PB": null,
        "PollHabMilkweed_13_TPB": null,
        "PollHabMilkweed_18_NGFP": null,
        "PollHabNectPlants_EstAcres": 0,
        "PollHabNectPlants_1_MMNWVC": null,
        "PollHabNectPlants_2_NWVC": null,
        "PollHabNectPlants_4_MH": null,
        "PollHabNectPlants_5_TT": null,
        "PollHabNectPlants_8_BMM": null,
        "PollHabNectPlants_9_PB": null,
        "PollHabNectPlants_13_TPB": null,
        "PollHabNectPlants_18_NGFP": null,
        "NatLongSav_EstAcres": null,
        "NatLongSav_1_MMNWVC": null,
        "NatLongSav_2_NWVC": null,
        "NatLongSav_4_MH": null,
        "NatLongSav_5_TT": null,
        "NatLongSav_8_BMM": null,
        "NatLongSav_9_PB": null,
        "NatLongSav_13_TPB": null,
        "NatLongSav_18_NGFP": null,
        "MixedPineSav_EstAcres": null,
        "MixedPineSav_1_MMNWVC": null,
        "MixedPineSav_2_NWVC": null,
        "MixedPineSav_4_MH": null,
        "MixedPineSav_5_TT": null,
        "MixedPineSav_8_BMM": null,
        "MixedPineSav_9_PB": null,
        "MixedPineSav_12_TPB": null,
        "MixedPineSav_18_NGFP": null,
        "GrazLandswCP_EstAcres": null,
        "GrazLandswCP_1_MMNWVC": null,
        "GrazLandswCP_2_NWVC": null,
        "GrazLandswCP_4_MH": null,
        "GrazLandswCP_5_TT": null,
        "GrazLandswCP_8_BMM": null,
        "GrazLandswCP_9_PB": null,
        "GrazLandswCP_13_TPB": null,
        "GrazLandswCP_18_NGFP": null,
        "CroplandwCP_EstAcres": null,
        "CroplandwCP_1_MMNWVC": null,
        "CroplandwCP_2_NWVC": null,
        "CroplandwCP_4_MH": null,
        "CroplandwCP_5_TT": null,
        "CroplandwCP_8_BMM": null,
        "CroplandwCP_9_PB": null,
        "CroplandwCP_13_TPB": null,
        "CroplandwCP_18_NGFP": null,
        "Calculation_ANCHOR_ACRES_TOTAL": 1,
        "ANCHOR_Ownership": "private",
        "ANCHOR_OwnershipConfidence": "low"
      },
      "geometry": {
        "type": "Point",
        "coordinates": [
          -92.70676402362571,
          41.26103024430144
        ]
      }
    },
    {
      "type": "Feature",
      "properties": {
        "ANCHOR_SiteName": "Frog Valley",
        "NatGrass_EstAcres": 10,
        "NatGrass_1_MMNWVC": 10,
        "NatGrass_2_NWVC": 10,
        "NatGrass_4_MH": 0,
        "NatGrass_5_TT": 0,
        "NatGrass_8_BMM": 10,
        "NatGrass_9_PB": 10,
        "NatGrass_13_TPB": 0,
        "NatGrass_18_NGFP": 0,
        "PollHabMilkweed_EstAcres": 80,
        "PollHabMilkweed_1_MMNWVC": 15,
        "PollHabMilkweed_2_NWVC": 15,
        "PollHabMilkweed_4_MH": 0,
        "PollHabMilkweed_5_TT": 0,
        "PollHabMilkweed_8_BMM": 15,
        "PollHabMilkweed_9_PB": 80,
        "PollHabMilkweed_13_TPB": 0,
        "PollHabMilkweed_18_NGFP": 15,
        "PollHabNectPlants_EstAcres": 172,
        "PollHabNectPlants_1_MMNWVC": 25,
        "PollHabNectPlants_2_NWVC": 25,
        "PollHabNectPlants_4_MH": 0,
        "PollHabNectPlants_5_TT": 0,
        "PollHabNectPlants_8_BMM": 25,
        "PollHabNectPlants_9_PB": 150,
        "PollHabNectPlants_13_TPB": 0,
        "PollHabNectPlants_18_NGFP": 5,
        "NatLongSav_EstAcres": null,
        "NatLongSav_1_MMNWVC": null,
        "NatLongSav_2_NWVC": null,
        "NatLongSav_4_MH": null,
        "NatLongSav_5_TT": null,
        "NatLongSav_8_BMM": null,
        "NatLongSav_9_PB": null,
        "NatLongSav_13_TPB": null,
        "NatLongSav_18_NGFP": null,
        "MixedPineSav_EstAcres": 40,
        "MixedPineSav_1_MMNWVC": 20,
        "MixedPineSav_2_NWVC": 20,
        "MixedPineSav_4_MH": 0,
        "MixedPineSav_5_TT": 0,
        "MixedPineSav_8_BMM": 20,
        "MixedPineSav_9_PB": 40,
        "MixedPineSav_12_TPB": 0,
        "MixedPineSav_18_NGFP": 5,
        "GrazLandswCP_EstAcres": null,
        "GrazLandswCP_1_MMNWVC": null,
        "GrazLandswCP_2_NWVC": null,
        "GrazLandswCP_4_MH": null,
        "GrazLandswCP_5_TT": null,
        "GrazLandswCP_8_BMM": null,
        "GrazLandswCP_9_PB": null,
        "GrazLandswCP_13_TPB": null,
        "GrazLandswCP_18_NGFP": null,
        "CroplandwCP_EstAcres": null,
        "CroplandwCP_1_MMNWVC": null,
        "CroplandwCP_2_NWVC": null,
        "CroplandwCP_4_MH": null,
        "CroplandwCP_5_TT": null,
        "CroplandwCP_8_BMM": null,
        "CroplandwCP_9_PB": null,
        "CroplandwCP_13_TPB": null,
        "CroplandwCP_18_NGFP": null,
        "Calculation_ANCHOR_ACRES_TOTAL": 172,
        "ANCHOR_Ownership": "private",
        "ANCHOR_OwnershipConfidence": "low"
      },
      "geometry": {
        "type": "Point",
        "coordinates": [
          -92.71196329006115,
          34.76031601325972
        ]
      }
    },
    {
      "type": "Feature",
      "properties": {
        "ANCHOR_SiteName": "529523683398",
        "NatGrass_EstAcres": null,
        "NatGrass_1_MMNWVC": null,
        "NatGrass_2_NWVC": null,
        "NatGrass_4_MH": null,
        "NatGrass_5_TT": null,
        "NatGrass_8_BMM": null,
        "NatGrass_9_PB": null,
        "NatGrass_13_TPB": null,
        "NatGrass_18_NGFP": null,
        "PollHabMilkweed_EstAcres": null,
        "PollHabMilkweed_1_MMNWVC": null,
        "PollHabMilkweed_2_NWVC": null,
        "PollHabMilkweed_4_MH": null,
        "PollHabMilkweed_5_TT": null,
        "PollHabMilkweed_8_BMM": null,
        "PollHabMilkweed_9_PB": null,
        "PollHabMilkweed_13_TPB": null,
        "PollHabMilkweed_18_NGFP": null,
        "PollHabNectPlants_EstAcres": null,
        "PollHabNectPlants_1_MMNWVC": null,
        "PollHabNectPlants_2_NWVC": null,
        "PollHabNectPlants_4_MH": null,
        "PollHabNectPlants_5_TT": null,
        "PollHabNectPlants_8_BMM": null,
        "PollHabNectPlants_9_PB": null,
        "PollHabNectPlants_13_TPB": null,
        "PollHabNectPlants_18_NGFP": null,
        "NatLongSav_EstAcres": null,
        "NatLongSav_1_MMNWVC": null,
        "NatLongSav_2_NWVC": null,
        "NatLongSav_4_MH": null,
        "NatLongSav_5_TT": null,
        "NatLongSav_8_BMM": null,
        "NatLongSav_9_PB": null,
        "NatLongSav_13_TPB": null,
        "NatLongSav_18_NGFP": null,
        "MixedPineSav_EstAcres": null,
        "MixedPineSav_1_MMNWVC": null,
        "MixedPineSav_2_NWVC": null,
        "MixedPineSav_4_MH": null,
        "MixedPineSav_5_TT": null,
        "MixedPineSav_8_BMM": null,
        "MixedPineSav_9_PB": null,
        "MixedPineSav_12_TPB": null,
        "MixedPineSav_18_NGFP": null,
        "GrazLandswCP_EstAcres": null,
        "GrazLandswCP_1_MMNWVC": null,
        "GrazLandswCP_2_NWVC": null,
        "GrazLandswCP_4_MH": null,
        "GrazLandswCP_5_TT": null,
        "GrazLandswCP_8_BMM": null,
        "GrazLandswCP_9_PB": null,
        "GrazLandswCP_13_TPB": null,
        "GrazLandswCP_18_NGFP": null,
        "CroplandwCP_EstAcres": null,
        "CroplandwCP_1_MMNWVC": null,
        "CroplandwCP_2_NWVC": null,
        "CroplandwCP_4_MH": null,
        "CroplandwCP_5_TT": null,
        "CroplandwCP_8_BMM": null,
        "CroplandwCP_9_PB": null,
        "CroplandwCP_13_TPB": null,
        "CroplandwCP_18_NGFP": null,
        "Calculation_ANCHOR_ACRES_TOTAL": 0
      },
      "geometry": null
    }
  ]
}
